{"type":"FeatureCollection","features":[{"type":"Feature","geometry":{"type":"MultiPolygon","coordinates":[[[[-3.0296,51.5609],[-3.0178,51.5587],[-3.0098,51.5529],[-3.0081,51.5462],[-3.0126,51.5391],[-3.032,51.534],[-3.0491,51.5416],[-3.0512,51.5482],[-3.048,51.5546],[-3.0296,51.5609]]]]},"properties":{"gsp":"IMPK_1","group":"_K","centroid_lon":-3.02962,"centroid_lat":51.54759}},{"type":"Feature","geometry":{"type":"MultiPolygon","coordinates":[[[[-2.5961,51.6591],[-2.6178,51.6526],[-2.6103,51.6577],[-2.5961,51.6591]]],[[[-2.158,51.8252],[-2.1609,51.8242],[-2.1609,51.8189],[-2.1885,51.8143],[-2.1856,51.8116],[-2.187,51.8053],[-2.1942,51.8053],[-2.2001,51.8107],[-2.2204,51.8107],[-2.2233,51.808],[-2.2204,51.8026],[-2.2247,51.8017],[-2.2262,51.7963],[-2.2334,51.7962],[-2.2319,51.7899],[-2.2261,51.7891],[-2.2217,51.7801],[-2.2362,51.7746],[-2.2493,51.7737],[-2.2653,51.7764],[-2.2783,51.7745],[-2.2958,51.7799],[-2.2972,51.7835],[-2.2813,51.7907],[-2.2843,51.7988],[-2.28,51.8069],[-2.2843,51.8087],[-2.2872,51.8051],[-2.3017,51.8042],[-2.3046,51.8006],[-2.3148,51.7987],[-2.3249,51.7888],[-2.3307,51.7915],[-2.3437,51.7879],[-2.3452,51.7942],[-2.3555,51.8013],[-2.3612,51.7959],[-2.3699,51.7941],[-2.3772,51.795],[-2.3816,51.8004],[-2.3976,51.7994],[-2.4151,51.8092],[-2.4383,51.8055],[-2.4469,51.7992],[-2.4469,51.7938],[-2.4411,51.7911],[-2.4396,51.7867],[-2.4163,51.7822],[-2.4075,51.7769],[-2.3973,51.7634],[-2.4001,51.758],[-2.4218,51.7516],[-2.4276,51.7471],[-2.4522,51.7452],[-2.4652,51.7398],[-2.468,51.7316],[-2.484,51.7316],[-2.4912,51.7279],[-2.4896,51.7154],[-2.4954,51.7126],[-2.4953,51.7036],[-2.5155,51.6954],[-2.5328,51.6936],[-2.5443,51.6845],[-2.5545,51.6836],[-2.5775,51.6735],[-2.5907,51.6634],[-2.6051,51.6723],[-2.6035,51.6741],[-2.6122,51.6815],[-2.6213,51.683],[-2.6294,51.689],[-2.6302,51.6947],[-2.627,51.6986],[-2.6346,51.7008],[-2.6309,51.7032],[-2.6517,51.7092],[-2.6678,51.7017],[-2.6686,51.7075],[-2.6783,51.7138],[-2.6792,51.7242],[-2.6861,51.7305],[-2.671,51.7359],[-2.6614,51.7532],[-2.6726,51.7599],[-2.6792,51.7683],[-2.674,51.7756],[-2.6719,51.7839],[-2.6745,51.7877],[-2.6704,51.7948],[-2.6772,51.8026],[-2.6713,51.8084],[-2.6582,51.8103],[-2.6595,51.8223],[-2.6485,51.8245],[-2.656,51.8267],[-2.6573,51.8326],[-2.6651,51.8353],[-2.6816,51.8381],[-2.6918,51.8361],[-2.696,51.8448],[-2.7033,51.8484],[-2.7034,51.8547],[-2.689,51.862],[-2.6832,51.862],[-2.6744,51.8566],[-2.6656,51.8576],[-2.6657,51.8621],[-2.6614,51.8639],[-2.6658,51.8666],[-2.663,51.8729],[-2.631,51.8749],[-2.634,51.8803],[-2.6267,51.8848],[-2.6122,51.8813],[-2.6092,51.8741],[-2.6149,51.8723],[-2.6149,51.8696],[-2.6062,51.8705],[-2.6032,51.8642],[-2.58,51.867],[-2.577,51.8644],[-2.5683,51.8653],[-2.5508,51.8609],[-2.5421,51.8645],[-2.5348,51.8627],[-2.5262,51.8718],[-2.5146,51.8736],[-2.5031,51.8872],[-2.4943,51.8836],[-2.4812,51.8837],[-2.4726,51.8891],[-2.4551,51.8883],[-2.4507,51.8838],[-2.4535,51.8712],[-2.4418,51.8649],[-2.4258,51.8686],[-2.4273,51.874],[-2.4201,51.8776],[-2.4158,51.8857],[-2.4071,51.8876],[-2.3998,51.8867],[-2.3968,51.8795],[-2.3837,51.8741],[-2.3779,51.8742],[-2.3605,51.8859],[-2.3518,51.885],[-2.3459,51.8797],[-2.3241,51.8824],[-2.3153,51.8788],[-2.3066,51.8807],[-2.3037,51.8825],[-2.3052,51.8906],[-2.2965,51.8942],[-2.2966,51.9014],[-2.2835,51.905],[-2.2908,51.9086],[-2.2879,51.9167],[-2.2938,51.9167],[-2.2879,51.9212],[-2.2792,51.9203],[-2.2792,51.9239],[-2.2851,51.9257],[-2.2837,51.9401],[-2.2618,51.9384],[-2.2531,51.933],[-2.2399,51.9303],[-2.2385,51.933],[-2.2225,51.9367],[-2.2123,51.934],[-2.1977,51.9367],[-2.1861,51.9403],[-2.1803,51.9457],[-2.1439,51.9494],[-2.1424,51.9557],[-2.1337,51.9548],[-2.1337,51.9593],[-2.1439,51.9602],[-2.1396,51.9692],[-2.1483,51.971],[-2.1469,51.9827],[-2.1688,51.988],[-2.1615,51.9898],[-2.1644,51.9971],[-2.1601,52.0025],[-2.1776,52.0096],[-2.182,52.0168],[-2.1704,52.0222],[-2.1719,52.0339],[-2.1588,52.0384],[-2.1515,52.0358],[-2.1529,52.0304],[-2.1427,52.0313],[-2.1441,52.0277],[-2.1354,52.0241],[-2.115,52.0421],[-2.115,52.0493],[-2.1179,52.0511],[-2.115,52.0538],[-2.1004,52.0556],[-2.0756,52.0511],[-2.0654,52.0628],[-2.0507,52.0664],[-2.0478,52.0602],[-2.0303,52.0485],[-2.0259,52.0538],[-1.9996,52.0575],[-1.9938,52.0547],[-1.9938,52.0476],[-1.9806,52.0476],[-1.9821,52.0431],[-1.9748,52.0412],[-1.9733,52.0367],[-1.9806,52.035],[-1.9938,52.0251],[-1.9894,52.017],[-1.9777,52.0098],[-1.969,52.0106],[-1.9646,52.0062],[-1.9515,52.0052],[-1.9237,52.0079],[-1.9179,52.0043],[-1.9179,51.9998],[-1.8931,51.9962],[-1.8829,51.9854],[-1.899,51.9818],[-1.8932,51.9755],[-1.899,51.9665],[-1.9092,51.9692],[-1.9195,51.9611],[-1.934,51.9639],[-1.9399,51.9521],[-1.9486,51.9504],[-1.9515,51.9423],[-1.9647,51.9423],[-1.9748,51.9387],[-1.9705,51.9342],[-1.9719,51.9315],[-1.9807,51.9315],[-1.9909,51.9225],[-1.9836,51.9098],[-1.9927,51.9146],[-1.9991,51.9037],[-2.0083,51.9053],[-2.0173,51.8781],[-2.0002,51.876],[-2.0001,51.8648],[-2.024,51.863],[-2.0293,51.8607],[-2.032,51.8548],[-2.0304,51.8496],[-2.0244,51.8479],[-2.029,51.8457],[-2.0217,51.8382],[-2.0246,51.8359],[-2.0216,51.828],[-2.0251,51.8219],[-2.0212,51.8172],[-2.0388,51.8181],[-2.0432,51.8145],[-2.0548,51.8135],[-2.0577,51.8199],[-2.0737,51.818],[-2.0795,51.8252],[-2.0941,51.8198],[-2.1057,51.8252],[-2.1202,51.8252],[-2.1231,51.8216],[-2.1333,51.8225],[-2.1377,51.8261],[-2.1449,51.8234],[-2.158,51.8252]],[[-2.1308,51.9548],[-2.1206,51.9539],[-2.1191,51.9593],[-2.1279,51.9584],[-2.1308,51.9548]]]]},"properties":{"gsp":"WALH_1","group":"_E","centroid_lon":-2.60676,"centroid_lat":51.65632}},{"type":"Feature","geometry":{"type":"MultiPolygon","coordinates":[[[[-2.1153,52.1915],[-2.1212,52.1942],[-2.1037,52.1969],[-2.1153,52.1915]]],[[[-2.2759,52.0931],[-2.2803,52.0949],[-2.2774,52.0985],[-2.2862,52.1003],[-2.3037,52.0931],[-2.3095,52.0957],[-2.3124,52.0912],[-2.3227,52.093],[-2.3285,52.0885],[-2.327,52.0831],[-2.3211,52.0795],[-2.3269,52.0741],[-2.3269,52.0687],[-2.3371,52.0678],[-2.3415,52.0633],[-2.34,52.0588],[-2.3458,52.0534],[-2.3574,52.0497],[-2.3574,52.047],[-2.3501,52.0443],[-2.3471,52.0317],[-2.347,52.0254],[-2.3572,52.02],[-2.344,52.0129],[-2.3338,52.012],[-2.3293,52.0003],[-2.3293,51.9931],[-2.3322,51.9913],[-2.3278,51.9895],[-2.3277,51.985],[-2.3131,51.9851],[-2.3175,51.9787],[-2.316,51.9751],[-2.3029,51.9752],[-2.2941,51.9716],[-2.2752,51.9761],[-2.2751,51.9689],[-2.2664,51.9663],[-2.2634,51.9591],[-2.2518,51.9681],[-2.2343,51.9681],[-2.2372,51.9573],[-2.2415,51.9555],[-2.2342,51.9501],[-2.24,51.9411],[-2.2385,51.9312],[-2.2531,51.933],[-2.2618,51.9384],[-2.2852,51.9392],[-2.2851,51.9257],[-2.2792,51.9239],[-2.2792,51.9203],[-2.2879,51.9212],[-2.2938,51.9167],[-2.2879,51.9167],[-2.2908,51.9086],[-2.2835,51.905],[-2.2966,51.9014],[-2.2965,51.8942],[-2.3052,51.8906],[-2.3037,51.8825],[-2.3095,51.8798],[-2.3153,51.8788],[-2.3212,51.8824],[-2.3459,51.8797],[-2.3518,51.885],[-2.3605,51.8859],[-2.3779,51.8742],[-2.3837,51.8741],[-2.3968,51.8795],[-2.3998,51.8867],[-2.4071,51.8876],[-2.4158,51.8857],[-2.4201,51.8776],[-2.4273,51.874],[-2.4258,51.8686],[-2.4418,51.8649],[-2.4535,51.8712],[-2.4507,51.8838],[-2.4551,51.8883],[-2.4726,51.8891],[-2.4812,51.8837],[-2.4943,51.8836],[-2.5031,51.8872],[-2.5146,51.8736],[-2.5262,51.8718],[-2.5348,51.8627],[-2.5421,51.8645],[-2.5508,51.8609],[-2.5683,51.8653],[-2.577,51.8644],[-2.58,51.867],[-2.6032,51.8642],[-2.6062,51.8705],[-2.6149,51.8696],[-2.6149,51.8723],[-2.6092,51.8741],[-2.6122,51.8813],[-2.6267,51.8848],[-2.634,51.8803],[-2.631,51.8749],[-2.663,51.8729],[-2.6658,51.8666],[-2.6614,51.8639],[-2.6657,51.8621],[-2.6656,51.8576],[-2.6744,51.8566],[-2.6832,51.862],[-2.7006,51.8583],[-2.7033,51.8484],[-2.696,51.8443],[-2.7038,51.8453],[-2.706,51.839],[-2.7123,51.8398],[-2.7182,51.8484],[-2.7263,51.8397],[-2.7317,51.8387],[-2.7553,51.8455],[-2.7594,51.8517],[-2.7529,51.8543],[-2.7559,51.8624],[-2.7487,51.8652],[-2.7517,51.8715],[-2.7721,51.874],[-2.767,51.8799],[-2.7721,51.8828],[-2.7998,51.8899],[-2.8198,51.9048],[-2.8351,51.9058],[-2.8359,51.9134],[-2.8407,51.9173],[-2.8439,51.9147],[-2.8521,51.9154],[-2.8524,51.9129],[-2.8606,51.9135],[-2.8619,51.9168],[-2.8437,51.9216],[-2.8578,51.9273],[-2.8691,51.9266],[-2.8768,51.9334],[-2.8869,51.9331],[-2.8858,51.9278],[-2.8915,51.9248],[-2.9028,51.9247],[-2.9144,51.9174],[-2.9561,51.9062],[-2.9707,51.9113],[-2.9756,51.9273],[-2.9976,51.9231],[-3.0065,51.9265],[-3.009,51.9303],[-3.0072,51.9377],[-3.0119,51.9444],[-3.0246,51.9568],[-3.0348,51.9597],[-3.0376,51.9656],[-3.0665,51.9831],[-3.0876,52.0146],[-3.098,52.0222],[-3.085,52.0407],[-3.0769,52.0391],[-3.0647,52.0493],[-3.0649,52.0607],[-3.0588,52.0635],[-3.0531,52.0725],[-3.0691,52.0724],[-3.0816,52.0779],[-3.0845,52.075],[-3.1118,52.0807],[-3.1018,52.0892],[-3.1205,52.098],[-3.1214,52.1024],[-3.1042,52.105],[-3.1066,52.1138],[-3.1036,52.1164],[-3.13,52.1246],[-3.1347,52.1375],[-3.114,52.1388],[-3.1001,52.1427],[-3.095,52.149],[-3.0819,52.151],[-3.0822,52.1674],[-3.0959,52.1838],[-3.0951,52.1943],[-3.1009,52.2022],[-3.0709,52.2126],[-3.0765,52.2162],[-3.0709,52.2224],[-3.0707,52.2283],[-3.052,52.2332],[-3.0533,52.2416],[-3.0418,52.2424],[-3.0425,52.2452],[-3.0485,52.2446],[-3.044,52.2465],[-3.047,52.2499],[-3.0452,52.2518],[-3.0254,52.2577],[-3.0254,52.261],[-3.032,52.2612],[-3.0303,52.2665],[-3.0404,52.2661],[-3.0409,52.2767],[-3.0451,52.2767],[-3.045,52.2798],[-3.0577,52.2796],[-3.0657,52.284],[-3.0754,52.2981],[-3.0909,52.3014],[-3.1024,52.2999],[-3.1099,52.3046],[-3.0984,52.3162],[-3.1028,52.321],[-3.0959,52.3268],[-3.1023,52.3355],[-3.0945,52.3373],[-3.1026,52.3451],[-3.1191,52.3433],[-3.1283,52.3456],[-3.1335,52.3518],[-3.1539,52.3519],[-3.1602,52.3565],[-3.1604,52.3659],[-3.2084,52.365],[-3.227,52.3817],[-3.2524,52.3813],[-3.2919,52.4219],[-3.3158,52.4371],[-3.3239,52.4351],[-3.3337,52.4407],[-3.329,52.4448],[-3.3123,52.443],[-3.2955,52.45],[-3.286,52.4576],[-3.2656,52.4624],[-3.253,52.4634],[-3.2374,52.4565],[-3.2334,52.4578],[-3.2294,52.4528],[-3.1959,52.4755],[-3.1791,52.4736],[-3.152,52.4859],[-3.0983,52.4825],[-3.0867,52.4889],[-3.0778,52.4899],[-3.0633,52.499],[-3.0381,52.4956],[-3.0385,52.5091],[-3.0591,52.509],[-3.0696,52.5161],[-3.0536,52.5252],[-3.021,52.5219],[-3.0123,52.5256],[-3.0095,52.5328],[-2.9977,52.5329],[-2.9933,52.5365],[-2.9816,52.5384],[-2.9787,52.5421],[-2.9668,52.5376],[-2.9535,52.5378],[-2.9389,52.546],[-2.9254,52.5353],[-2.9018,52.5373],[-2.8901,52.541],[-2.8946,52.5472],[-2.8888,52.5509],[-2.8503,52.5475],[-2.8471,52.5323],[-2.8557,52.5223],[-2.8436,52.5053],[-2.845,52.4999],[-2.8508,52.498],[-2.8478,52.4936],[-2.8404,52.4945],[-2.8315,52.491],[-2.8125,52.4983],[-2.8065,52.4939],[-2.7932,52.4939],[-2.7903,52.4931],[-2.7916,52.4859],[-2.7856,52.4778],[-2.7738,52.4806],[-2.7666,52.4878],[-2.7533,52.4897],[-2.7416,52.4979],[-2.7313,52.498],[-2.7255,52.5016],[-2.7166,52.4998],[-2.7106,52.4927],[-2.6988,52.4936],[-2.6958,52.4892],[-2.687,52.4928],[-2.6825,52.4901],[-2.6678,52.4929],[-2.6545,52.4894],[-2.6426,52.4814],[-2.6484,52.475],[-2.6572,52.475],[-2.6615,52.4642],[-2.6525,52.457],[-2.6437,52.4598],[-2.6378,52.4562],[-2.6421,52.449],[-2.6347,52.4472],[-2.6229,52.4491],[-2.6201,52.4554],[-2.6127,52.4572],[-2.6069,52.4573],[-2.6023,52.451],[-2.592,52.451],[-2.5877,52.4574],[-2.5908,52.4699],[-2.5879,52.4736],[-2.5806,52.4754],[-2.5748,52.4826],[-2.5526,52.48],[-2.5527,52.4845],[-2.5483,52.4872],[-2.5393,52.4792],[-2.5201,52.4766],[-2.5039,52.4793],[-2.4905,52.4695],[-2.4758,52.4669],[-2.4685,52.4723],[-2.4552,52.475],[-2.4538,52.484],[-2.4495,52.4868],[-2.4317,52.4832],[-2.4171,52.4959],[-2.4038,52.4959],[-2.3965,52.5085],[-2.3891,52.5068],[-2.392,52.5005],[-2.3846,52.4951],[-2.3684,52.4996],[-2.3655,52.5032],[-2.3522,52.5024],[-2.3447,52.4898],[-2.3315,52.4934],[-2.3316,52.4988],[-2.3271,52.5016],[-2.3183,52.4989],[-2.3197,52.4935],[-2.3005,52.4899],[-2.2769,52.4918],[-2.2784,52.4963],[-2.2755,52.5008],[-2.2667,52.5017],[-2.2622,52.5062],[-2.2475,52.5035],[-2.2357,52.5081],[-2.2224,52.5045],[-2.215,52.4991],[-2.2165,52.4955],[-2.2017,52.4892],[-2.2017,52.4856],[-2.1869,52.483],[-2.1854,52.474],[-2.1692,52.4686],[-2.1706,52.4623],[-2.175,52.4623],[-2.1765,52.4587],[-2.172,52.4452],[-2.1749,52.4407],[-2.1705,52.4389],[-2.169,52.4335],[-2.1587,52.4344],[-2.1587,52.429],[-2.1704,52.4119],[-2.1793,52.4146],[-2.1822,52.4083],[-2.166,52.4092],[-2.1645,52.4047],[-2.1512,52.3984],[-2.1424,52.3993],[-2.138,52.3957],[-2.1277,52.3976],[-2.1247,52.3931],[-2.1277,52.3886],[-2.1188,52.3823],[-2.1026,52.3841],[-2.0938,52.3787],[-2.0952,52.3751],[-2.0864,52.367],[-2.0805,52.3679],[-2.0776,52.3634],[-2.0673,52.3625],[-2.0687,52.3499],[-2.0599,52.3463],[-2.0614,52.3427],[-2.0525,52.3454],[-2.0526,52.3499],[-2.0408,52.3499],[-2.0393,52.3562],[-2.032,52.358],[-2.0276,52.3643],[-2.0202,52.3643],[-2.0128,52.3598],[-2.0202,52.358],[-2.0217,52.3526],[-2.0114,52.3508],[-1.9996,52.3544],[-1.9937,52.3499],[-2.0025,52.349],[-2.004,52.3454],[-1.9952,52.3409],[-1.9893,52.3418],[-1.9834,52.3355],[-1.9673,52.3337],[-1.9629,52.3265],[-1.9643,52.3229],[-1.982,52.3238],[-1.9923,52.3292],[-1.9937,52.322],[-2.0025,52.3211],[-1.9923,52.3157],[-2.0099,52.3103],[-2.004,52.3013],[-1.982,52.2941],[-1.9849,52.2914],[-1.982,52.286],[-1.9703,52.286],[-1.9688,52.2824],[-1.9747,52.2824],[-1.9747,52.2788],[-1.9688,52.2707],[-1.9791,52.2626],[-1.9893,52.2608],[-1.9923,52.2563],[-2.0011,52.2581],[-1.9996,52.2635],[-2.0099,52.2698],[-2.0275,52.2653],[-2.0363,52.259],[-2.0363,52.2563],[-2.0275,52.2545],[-2.0275,52.2473],[-2.0319,52.2455],[-2.0289,52.2392],[-2.0319,52.2329],[-2.048,52.2392],[-2.048,52.2437],[-2.0524,52.2455],[-2.051,52.2536],[-2.0554,52.2572],[-2.092,52.2563],[-2.0994,52.2518],[-2.0994,52.2473],[-2.1052,52.2455],[-2.1067,52.241],[-2.092,52.2392],[-2.0861,52.2419],[-2.0788,52.2374],[-2.0788,52.2302],[-2.092,52.2275],[-2.092,52.2104],[-2.1022,52.2086],[-2.111,52.2122],[-2.1227,52.2059],[-2.1227,52.2005],[-2.1256,52.1987],[-2.1403,52.1987],[-2.1432,52.1906],[-2.1505,52.1887],[-2.1461,52.178],[-2.1344,52.1816],[-2.1226,52.1798],[-2.1168,52.1834],[-2.1168,52.1879],[-2.1007,52.187],[-2.0963,52.1798],[-2.0963,52.1753],[-2.1021,52.1681],[-2.0992,52.1609],[-2.1123,52.1582],[-2.1167,52.1519],[-2.1226,52.1501],[-2.1299,52.1501],[-2.1343,52.1546],[-2.1475,52.1537],[-2.1533,52.1474],[-2.1679,52.1428],[-2.1708,52.1338],[-2.1854,52.1284],[-2.2308,52.1292],[-2.2337,52.1256],[-2.2425,52.1256],[-2.2439,52.1211],[-2.2365,52.1157],[-2.2483,52.1148],[-2.2541,52.1085],[-2.2526,52.1031],[-2.2672,52.1003],[-2.2701,52.094],[-2.2759,52.0931]],[[-2.1577,52.1581],[-2.1519,52.1519],[-2.1548,52.1599],[-2.1577,52.1581]],[[-2.1912,52.4542],[-2.1971,52.4524],[-2.1971,52.4479],[-2.1838,52.4515],[-2.1838,52.4551],[-2.1912,52.4542]]]]},"properties":{"gsp":"BISW_1","group":"_E","centroid_lon":-2.11259,"centroid_lat":52.19421}},{"type":"Feature","geometry":{"type":"MultiPolygon","coordinates":[[[[-2.1322,51.953],[-2.1279,51.9584],[-2.1191,51.9593],[-2.1206,51.9539],[-2.1322,51.953]]],[[[-2.237,51.933],[-2.24,51.9411],[-2.2342,51.9501],[-2.2415,51.9555],[-2.2372,51.9573],[-2.2343,51.9681],[-2.2518,51.9681],[-2.2634,51.9591],[-2.2664,51.9663],[-2.2751,51.9689],[-2.2752,51.9761],[-2.2941,51.9716],[-2.3029,51.9752],[-2.316,51.9751],[-2.3175,51.9787],[-2.3131,51.9851],[-2.3277,51.985],[-2.3278,51.9895],[-2.3322,51.9913],[-2.3293,51.9931],[-2.3293,52.0003],[-2.3338,52.012],[-2.344,52.0129],[-2.3572,52.02],[-2.347,52.0254],[-2.3471,52.0317],[-2.3501,52.0443],[-2.3574,52.047],[-2.3574,52.0497],[-2.3458,52.0534],[-2.34,52.0588],[-2.3415,52.0633],[-2.3371,52.0678],[-2.3269,52.0687],[-2.3269,52.0741],[-2.3211,52.0795],[-2.327,52.0831],[-2.3285,52.0885],[-2.3227,52.093],[-2.3124,52.0912],[-2.3095,52.0957],[-2.3037,52.0931],[-2.2862,52.1003],[-2.2774,52.0985],[-2.2803,52.0949],[-2.2774,52.0931],[-2.2715,52.0931],[-2.2672,52.1003],[-2.2526,52.1031],[-2.2541,52.1085],[-2.2497,52.1139],[-2.2365,52.1157],[-2.2439,52.1211],[-2.2425,52.1256],[-2.2337,52.1256],[-2.2308,52.1292],[-2.1854,52.1284],[-2.1708,52.1338],[-2.1679,52.1428],[-2.1533,52.1474],[-2.1475,52.1537],[-2.1343,52.1546],[-2.1299,52.1501],[-2.1226,52.1501],[-2.1167,52.1519],[-2.1123,52.1582],[-2.0992,52.1609],[-2.1021,52.1681],[-2.0963,52.1753],[-2.0963,52.1798],[-2.1007,52.187],[-2.1168,52.1879],[-2.1168,52.1834],[-2.1226,52.1798],[-2.1344,52.1816],[-2.1461,52.178],[-2.1505,52.1887],[-2.1432,52.1906],[-2.1403,52.1987],[-2.1256,52.1987],[-2.1227,52.2005],[-2.1227,52.2059],[-2.111,52.2122],[-2.1022,52.2086],[-2.092,52.2104],[-2.092,52.2275],[-2.0788,52.2302],[-2.0788,52.2374],[-2.0861,52.2419],[-2.092,52.2392],[-2.1067,52.241],[-2.1052,52.2455],[-2.0994,52.2473],[-2.0994,52.2518],[-2.092,52.2563],[-2.0554,52.2572],[-2.051,52.2536],[-2.0524,52.2455],[-2.048,52.2437],[-2.048,52.2392],[-2.0319,52.2329],[-2.0289,52.2392],[-2.0319,52.2455],[-2.0275,52.2473],[-2.0275,52.2545],[-2.0363,52.2563],[-2.0363,52.259],[-2.0275,52.2653],[-2.0099,52.2698],[-1.9996,52.2635],[-2.0011,52.2581],[-1.9923,52.2563],[-1.9864,52.2626],[-1.9791,52.2626],[-1.9703,52.2689],[-1.9688,52.2716],[-1.9747,52.2824],[-1.9688,52.2824],[-1.9703,52.286],[-1.9805,52.2851],[-1.9849,52.2878],[-1.982,52.2941],[-1.9967,52.2977],[-2.0099,52.3076],[-2.0069,52.3121],[-1.9923,52.3157],[-2.0025,52.3202],[-1.9937,52.322],[-1.9923,52.3292],[-1.982,52.3238],[-1.9629,52.3247],[-1.9673,52.3337],[-1.9834,52.3355],[-1.9893,52.3418],[-1.9952,52.3409],[-2.004,52.3454],[-2.0025,52.349],[-1.9937,52.3499],[-1.9952,52.3535],[-1.9923,52.3553],[-1.982,52.358],[-1.982,52.3607],[-1.9731,52.3607],[-1.9702,52.3553],[-1.9614,52.3589],[-1.9628,52.3553],[-1.9511,52.3499],[-1.9423,52.3553],[-1.9261,52.3553],[-1.9187,52.3598],[-1.9084,52.3571],[-1.9025,52.3607],[-1.8908,52.3616],[-1.8908,52.3481],[-1.8849,52.3472],[-1.882,52.3391],[-1.8659,52.3391],[-1.8673,52.3346],[-1.8644,52.33],[-1.8527,52.3264],[-1.8527,52.3192],[-1.8415,52.3156],[-1.8411,52.3097],[-1.8335,52.3015],[-1.8372,52.3002],[-1.805,52.2874],[-1.8089,52.2851],[-1.8078,52.2815],[-1.8151,52.2782],[-1.8183,52.2808],[-1.823,52.2794],[-1.8291,52.2764],[-1.8312,52.2715],[-1.7994,52.2592],[-1.7871,52.2501],[-1.7601,52.2451],[-1.7528,52.2404],[-1.7561,52.2372],[-1.7546,52.235],[-1.7447,52.2346],[-1.7118,52.2196],[-1.7001,52.2195],[-1.7002,52.2148],[-1.6899,52.2147],[-1.6899,52.2103],[-1.6823,52.2117],[-1.677,52.2087],[-1.6585,52.2139],[-1.6551,52.2121],[-1.6579,52.2111],[-1.6569,52.2087],[-1.6432,52.201],[-1.6498,52.1936],[-1.6402,52.189],[-1.6404,52.1855],[-1.6351,52.1815],[-1.6246,52.1811],[-1.6165,52.1747],[-1.5982,52.1784],[-1.6015,52.1714],[-1.5953,52.1719],[-1.5951,52.1684],[-1.6022,52.1676],[-1.604,52.1597],[-1.5991,52.1576],[-1.5843,52.1599],[-1.5831,52.1522],[-1.5631,52.157],[-1.5437,52.1491],[-1.5391,52.1518],[-1.5175,52.1504],[-1.5133,52.1351],[-1.5031,52.1353],[-1.4893,52.1288],[-1.4755,52.1352],[-1.4741,52.1495],[-1.4426,52.1466],[-1.4434,52.1431],[-1.4381,52.1413],[-1.4245,52.1437],[-1.4263,52.1499],[-1.4087,52.1573],[-1.3779,52.1553],[-1.375,52.1578],[-1.3659,52.1475],[-1.3748,52.1377],[-1.3749,52.1278],[-1.372,52.1269],[-1.375,52.1188],[-1.4029,52.1099],[-1.4146,52.1118],[-1.4191,52.1019],[-1.4134,52.0965],[-1.4001,52.1027],[-1.3754,52.0963],[-1.3769,52.0927],[-1.3711,52.0873],[-1.3683,52.0756],[-1.3829,52.0756],[-1.3699,52.0711],[-1.3714,52.0657],[-1.3744,52.063],[-1.3831,52.0675],[-1.4079,52.065],[-1.4095,52.0596],[-1.4198,52.0533],[-1.417,52.0434],[-1.3908,52.0325],[-1.3748,52.0342],[-1.3674,52.0414],[-1.3717,52.045],[-1.3687,52.0504],[-1.3745,52.0549],[-1.3672,52.0566],[-1.3584,52.0521],[-1.3585,52.0467],[-1.3497,52.0485],[-1.3454,52.0448],[-1.3366,52.0457],[-1.3309,52.0403],[-1.3118,52.0446],[-1.3078,52.0239],[-1.3151,52.0204],[-1.3065,52.014],[-1.3035,52.0185],[-1.2991,52.0185],[-1.2949,52.0104],[-1.2832,52.0103],[-1.2769,52.0141],[-1.276,52.0105],[-1.2756,52.0048],[-1.2819,51.9992],[-1.295,52.0011],[-1.3006,51.9995],[-1.3009,51.9966],[-1.3231,51.9977],[-1.3355,51.9928],[-1.3377,51.9887],[-1.3585,51.9873],[-1.3569,51.9766],[-1.3606,51.9769],[-1.3632,51.9842],[-1.3692,51.9809],[-1.4009,51.9792],[-1.4084,51.9721],[-1.4111,51.978],[-1.4213,51.9823],[-1.4315,51.98],[-1.4365,51.9875],[-1.4526,51.9793],[-1.4767,51.9832],[-1.4825,51.9784],[-1.4938,51.9757],[-1.5004,51.9835],[-1.5166,51.9892],[-1.5215,51.9963],[-1.53,51.9846],[-1.5794,51.9725],[-1.609,51.9565],[-1.6219,51.9469],[-1.6138,51.9374],[-1.6441,51.9219],[-1.6567,51.9212],[-1.6913,51.9077],[-1.6984,51.9102],[-1.7288,51.9093],[-1.7416,51.8984],[-1.7509,51.8978],[-1.7668,51.8869],[-1.7819,51.8869],[-1.8092,51.8949],[-1.8117,51.8903],[-1.8088,51.8847],[-1.8193,51.877],[-1.8235,51.8784],[-1.8304,51.8669],[-1.8495,51.8636],[-1.8521,51.8695],[-1.8582,51.8704],[-1.8637,51.886],[-1.871,51.8898],[-1.8814,51.8911],[-1.8809,51.8939],[-1.8946,51.894],[-1.9004,51.8865],[-1.9107,51.8871],[-1.9258,51.896],[-1.9166,51.9016],[-1.9236,51.9206],[-1.935,51.9196],[-1.932,51.9138],[-1.936,51.9096],[-1.9834,51.9096],[-1.9894,51.9162],[-1.9894,51.9243],[-1.9807,51.9315],[-1.9705,51.9333],[-1.9748,51.9387],[-1.9647,51.9423],[-1.9515,51.9423],[-1.9486,51.9504],[-1.9399,51.9521],[-1.934,51.9639],[-1.9195,51.9611],[-1.9092,51.9692],[-1.899,51.9665],[-1.8932,51.9755],[-1.899,51.9818],[-1.8829,51.9863],[-1.8931,51.9962],[-1.9179,51.9998],[-1.9179,52.0043],[-1.9237,52.0079],[-1.9515,52.0052],[-1.9646,52.0062],[-1.969,52.0106],[-1.9777,52.0098],[-1.9894,52.017],[-1.9938,52.0251],[-1.9806,52.035],[-1.9733,52.0367],[-1.9748,52.0412],[-1.9821,52.0431],[-1.9806,52.0476],[-1.9938,52.0476],[-1.9938,52.0547],[-1.9996,52.0575],[-2.0259,52.0538],[-2.0303,52.0485],[-2.0478,52.0602],[-2.0522,52.0664],[-2.0683,52.061],[-2.0756,52.0511],[-2.1004,52.0556],[-2.115,52.0538],[-2.1179,52.0511],[-2.115,52.0493],[-2.115,52.0421],[-2.1354,52.0241],[-2.1441,52.0277],[-2.1427,52.0313],[-2.1529,52.0304],[-2.1515,52.0358],[-2.1588,52.0384],[-2.1719,52.0339],[-2.1704,52.0222],[-2.182,52.0168],[-2.1776,52.0096],[-2.1601,52.0025],[-2.1644,51.9971],[-2.1615,51.9898],[-2.1688,51.988],[-2.1469,51.9827],[-2.1483,51.971],[-2.1396,51.9692],[-2.1439,51.9602],[-2.1337,51.9593],[-2.1337,51.9548],[-2.1424,51.9557],[-2.1439,51.9494],[-2.1803,51.9457],[-2.1861,51.9403],[-2.1977,51.9367],[-2.2123,51.934],[-2.2225,51.9367],[-2.237,51.933]],[[-2.1197,52.1915],[-2.1051,52.1942],[-2.1037,52.1969],[-2.1212,52.1942],[-2.1197,52.1915]]],[[[-2.1533,52.1527],[-2.1577,52.1563],[-2.1563,52.1599],[-2.1533,52.1527]]]]},"properties":{"gsp":"FECK_6","group":"_E","centroid_lon":-2.12557,"centroid_lat":51.95586}},{"type":"Feature","geometry":{"type":"MultiPolygon","coordinates":[[[[-2.7706,51.874],[-2.7517,51.8715],[-2.7487,51.8652],[-2.7559,51.8624],[-2.7529,51.8543],[-2.7597,51.8525],[-2.7685,51.862],[-2.7768,51.8647],[-2.7755,51.8729],[-2.7706,51.874]]],[[[-2.9693,51.9113],[-2.9561,51.9062],[-2.9705,51.9044],[-2.974,51.909],[-2.9693,51.9113]]],[[[-3.065,52.0658],[-3.0694,52.0697],[-3.0678,52.0733],[-3.0531,52.0725],[-3.0631,52.0608],[-3.065,52.0658]]],[[[-3.1181,52.0981],[-3.1048,52.0919],[-3.1018,52.0892],[-3.1031,52.0856],[-3.112,52.081],[-3.1133,52.0864],[-3.1177,52.0869],[-3.1205,52.098],[-3.1181,52.0981]]],[[[-3.096,52.3287],[-3.0988,52.3242],[-3.1059,52.3253],[-3.1001,52.3294],[-3.096,52.3287]]],[[[-3.1005,52.3331],[-3.1022,52.3349],[-3.1005,52.3331]]]]},"properties":{"gsp":"RASS_1","group":"_E","centroid_lon":-2.76202,"centroid_lat":51.86445}},{"type":"Feature","geometry":{"type":"MultiPolygon","coordinates":[[[[-2.6178,51.6526],[-2.5961,51.6597],[-2.5854,51.6601],[-2.5907,51.6634],[-2.5775,51.6735],[-2.5545,51.6836],[-2.5443,51.6845],[-2.5285,51.6954],[-2.5155,51.6954],[-2.4996,51.7009],[-2.4953,51.7036],[-2.4954,51.7126],[-2.4896,51.7154],[-2.4912,51.7279],[-2.484,51.7316],[-2.468,51.7316],[-2.4652,51.7398],[-2.4522,51.7452],[-2.4276,51.7471],[-2.4218,51.7516],[-2.4001,51.758],[-2.3973,51.7634],[-2.4075,51.7769],[-2.4163,51.7822],[-2.4396,51.7867],[-2.4411,51.7911],[-2.4469,51.7938],[-2.4469,51.7992],[-2.4383,51.8055],[-2.4151,51.8092],[-2.3976,51.7994],[-2.3816,51.8004],[-2.3772,51.795],[-2.3699,51.7941],[-2.3612,51.7959],[-2.3555,51.8013],[-2.3452,51.7942],[-2.3437,51.7879],[-2.3307,51.7915],[-2.3249,51.7888],[-2.3148,51.7987],[-2.3046,51.8006],[-2.3017,51.8042],[-2.2872,51.8051],[-2.2843,51.8087],[-2.28,51.8069],[-2.2843,51.7988],[-2.2813,51.7907],[-2.2972,51.7835],[-2.2929,51.7772],[-2.2362,51.7746],[-2.2217,51.7801],[-2.2261,51.7891],[-2.2334,51.7926],[-2.2334,51.7962],[-2.2262,51.7963],[-2.2247,51.8017],[-2.2204,51.8026],[-2.2233,51.8089],[-2.2132,51.8125],[-2.187,51.8053],[-2.1856,51.8116],[-2.1885,51.8143],[-2.1609,51.8189],[-2.1609,51.8242],[-2.158,51.8261],[-2.1464,51.8234],[-2.1377,51.8261],[-2.1289,51.8216],[-2.1231,51.8216],[-2.1202,51.8252],[-2.1057,51.8252],[-2.097,51.8198],[-2.0795,51.8252],[-2.0737,51.818],[-2.0577,51.8199],[-2.0548,51.8135],[-2.0432,51.8145],[-2.0388,51.8181],[-2.0212,51.8172],[-2.0173,51.8124],[-2.0235,51.8061],[-2.0223,51.7963],[-2.0252,51.7943],[-2.0207,51.7862],[-2.0106,51.7816],[-2.0132,51.7765],[-1.9985,51.7702],[-1.997,51.7655],[-2.0157,51.756],[-2.0197,51.7519],[-2.0141,51.7486],[-2.017,51.7454],[-2.029,51.7475],[-2.029,51.7432],[-2.042,51.7429],[-2.036,51.7394],[-2.0541,51.7341],[-2.0529,51.7169],[-2.0157,51.7143],[-2.0152,51.7116],[-2.0035,51.7093],[-1.9985,51.7112],[-1.9977,51.7071],[-2.0031,51.6985],[-1.9987,51.7008],[-1.9895,51.6966],[-1.9839,51.6848],[-1.9867,51.6686],[-1.9939,51.6652],[-2.0049,51.6657],[-2.0085,51.6623],[-2.0407,51.6623],[-2.0558,51.6719],[-2.0793,51.6531],[-2.1128,51.6591],[-2.1206,51.655],[-2.1289,51.6596],[-2.1538,51.6596],[-2.1716,51.6652],[-2.1813,51.6611],[-2.1782,51.6455],[-2.1854,51.6356],[-2.2503,51.6348],[-2.2536,51.63],[-2.221,51.6216],[-2.2246,51.6105],[-2.2356,51.6043],[-2.2355,51.593],[-2.2406,51.5913],[-2.2438,51.5809],[-2.2661,51.5821],[-2.274,51.574],[-2.2746,51.5718],[-2.2591,51.5695],[-2.2662,51.5625],[-2.2671,51.5491],[-2.2602,51.5433],[-2.2651,51.5355],[-2.2511,51.5265],[-2.2546,51.5217],[-2.2626,51.5187],[-2.2967,51.511],[-2.2948,51.5063],[-2.3027,51.5037],[-2.3025,51.4856],[-2.29,51.4869],[-2.2874,51.4776],[-2.2944,51.4582],[-2.2838,51.4573],[-2.2932,51.4283],[-2.3114,51.4218],[-2.3127,51.4285],[-2.324,51.4364],[-2.3433,51.4391],[-2.376,51.4322],[-2.4015,51.4311],[-2.4092,51.4258],[-2.4223,51.4233],[-2.4414,51.4222],[-2.4416,51.4169],[-2.4682,51.4153],[-2.4802,51.421],[-2.4917,51.4177],[-2.4873,51.4259],[-2.4902,51.4285],[-2.5069,51.4242],[-2.5076,51.428],[-2.5224,51.4321],[-2.526,51.4361],[-2.5256,51.4435],[-2.5051,51.4449],[-2.5045,51.4508],[-2.4781,51.4593],[-2.4878,51.4742],[-2.475,51.476],[-2.4665,51.4811],[-2.4559,51.4777],[-2.4152,51.4785],[-2.4136,51.4817],[-2.4214,51.4883],[-2.4183,51.4931],[-2.422,51.4931],[-2.4276,51.5022],[-2.445,51.5012],[-2.4549,51.5074],[-2.4663,51.5023],[-2.4778,51.5036],[-2.4816,51.4972],[-2.4962,51.5006],[-2.4912,51.5078],[-2.4952,51.5173],[-2.4857,51.5247],[-2.4898,51.5275],[-2.4867,51.5293],[-2.508,51.5391],[-2.5228,51.5337],[-2.5169,51.5404],[-2.5168,51.5481],[-2.5257,51.5506],[-2.5151,51.5556],[-2.5123,51.5607],[-2.5172,51.5607],[-2.5163,51.5651],[-2.5292,51.566],[-2.5278,51.5683],[-2.5374,51.5764],[-2.5552,51.5838],[-2.5583,51.5914],[-2.5648,51.5884],[-2.5761,51.5891],[-2.5882,51.5834],[-2.606,51.5911],[-2.6093,51.5838],[-2.6131,51.5823],[-2.6165,51.5863],[-2.622,51.5845],[-2.6255,51.5872],[-2.6347,51.5843],[-2.6325,51.5891],[-2.6351,51.5911],[-2.6413,51.5862],[-2.6419,51.5894],[-2.6573,51.5961],[-2.6549,51.6006],[-2.6514,51.5984],[-2.6444,51.6008],[-2.6369,51.6088],[-2.637,51.6129],[-2.6443,51.618],[-2.6446,51.623],[-2.6178,51.6526]]]]},"properties":{"gsp":"IROA1","group":"_E","centroid_lon":-2.35112,"centroid_lat":51.65752}},{"type":"Feature","geometry":{"type":"MultiPolygon","coordinates":[[[[-2.866,51.9226],[-2.8681,51.9265],[-2.8585,51.9273],[-2.844,51.9218],[-2.8514,51.9191],[-2.866,51.9226]]],[[[-3.1334,52.1381],[-3.1466,52.1398],[-3.1508,52.1308],[-3.1611,52.1325],[-3.1668,52.1279],[-3.1726,52.1279],[-3.1874,52.1313],[-3.193,52.125],[-3.2047,52.1248],[-3.2079,52.1347],[-3.1994,52.1438],[-3.2187,52.1553],[-3.2043,52.1645],[-3.2045,52.1707],[-3.218,52.1823],[-3.2242,52.1949],[-3.217,52.1976],[-3.1818,52.1962],[-3.1775,52.2007],[-3.1779,52.216],[-3.1663,52.2216],[-3.165,52.2261],[-3.1755,52.2368],[-3.202,52.2428],[-3.2024,52.2554],[-3.2084,52.2616],[-3.2088,52.2751],[-3.2031,52.2797],[-3.1694,52.2836],[-3.1608,52.2918],[-3.1374,52.2929],[-3.136,52.2966],[-3.1229,52.3012],[-3.0909,52.3014],[-3.0754,52.2981],[-3.0645,52.2832],[-3.0409,52.2767],[-3.0404,52.2661],[-3.0303,52.2665],[-3.032,52.2612],[-3.0257,52.2612],[-3.0254,52.2577],[-3.0439,52.2529],[-3.047,52.2499],[-3.044,52.2465],[-3.0485,52.2446],[-3.0425,52.2452],[-3.0426,52.2414],[-3.0533,52.2416],[-3.052,52.2332],[-3.0707,52.2283],[-3.0709,52.2224],[-3.0765,52.2162],[-3.0709,52.2126],[-3.1009,52.2022],[-3.0951,52.1943],[-3.0959,52.1838],[-3.0822,52.1674],[-3.0819,52.151],[-3.095,52.149],[-3.1001,52.1427],[-3.114,52.1388],[-3.1334,52.1381]]],[[[-3.3186,52.4171],[-3.3305,52.4188],[-3.3323,52.4304],[-3.3266,52.4369],[-3.3218,52.4349],[-3.3158,52.4371],[-3.2979,52.4247],[-3.3186,52.4171]]]]},"properties":{"gsp":"BISW_1","group":"_K","centroid_lon":-2.85697,"centroid_lat":51.92303}},{"type":"Feature","geometry":{"type":"MultiPolygon","coordinates":[[[[-3.5362,51.5574],[-3.5391,51.5583],[-3.5363,51.561],[-3.5394,51.5655],[-3.5638,51.5633],[-3.5665,51.557],[-3.5708,51.5551],[-3.5706,51.5506],[-3.5923,51.5504],[-3.5979,51.5458],[-3.5977,51.5413],[-3.6079,51.5438],[-3.6251,51.5391],[-3.6324,51.5426],[-3.6468,51.5424],[-3.6456,51.5469],[-3.6529,51.5495],[-3.653,51.5522],[-3.6432,51.5614],[-3.678,51.5672],[-3.6871,51.576],[-3.7002,51.5804],[-3.7063,51.5875],[-3.7053,51.6001],[-3.6896,51.6057],[-3.6784,51.6158],[-3.6816,51.6256],[-3.6861,51.6292],[-3.7137,51.6306],[-3.738,51.6239],[-3.741,51.6284],[-3.7512,51.63],[-3.7587,51.6362],[-3.7547,51.6453],[-3.7463,51.6508],[-3.7481,51.6616],[-3.7353,51.6672],[-3.7266,51.6673],[-3.7082,51.6775],[-3.6909,51.6786],[-3.6665,51.6862],[-3.6541,51.7017],[-3.5993,51.7105],[-3.5885,51.6918],[-3.5909,51.6764],[-3.5878,51.6702],[-3.5715,51.6587],[-3.554,51.6562],[-3.5449,51.6446],[-3.5201,51.6377],[-3.5138,51.6225],[-3.5018,51.6101],[-3.5046,51.6064],[-3.5027,51.593],[-3.5069,51.5884],[-3.5067,51.5821],[-3.4964,51.5768],[-3.5004,51.5651],[-3.5318,51.5557],[-3.5362,51.5574]]]]},"properties":{"gsp":"MAGA_6","group":"_K","centroid_lon":-3.62463,"centroid_lat":51.6181}},{"type":"Feature","geometry":{"type":"MultiPolygon","coordinates":[[[[-3.5378,51.4764],[-3.5293,51.4819],[-3.5292,51.4774],[-3.5378,51.4764]]],[[[-3.5543,51.4113],[-3.5722,51.4094],[-3.5792,51.4134],[-3.5987,51.4345],[-3.6445,51.4583],[-3.6497,51.4702],[-3.6558,51.4738],[-3.6639,51.4749],[-3.6751,51.4696],[-3.6987,51.4673],[-3.7226,51.4765],[-3.7355,51.4893],[-3.7536,51.501],[-3.7667,51.5361],[-3.783,51.5587],[-3.7745,51.5594],[-3.7718,51.5649],[-3.7416,51.5671],[-3.7277,51.5827],[-3.7062,51.5848],[-3.6871,51.576],[-3.678,51.5672],[-3.6432,51.5614],[-3.6529,51.5495],[-3.6456,51.5469],[-3.6468,51.5424],[-3.6324,51.5426],[-3.6251,51.5391],[-3.6079,51.5438],[-3.5977,51.5413],[-3.5979,51.5458],[-3.5923,51.5504],[-3.5706,51.5506],[-3.5708,51.5551],[-3.5665,51.557],[-3.5638,51.5633],[-3.5379,51.5646],[-3.5363,51.561],[-3.5391,51.5583],[-3.5332,51.5556],[-3.533,51.5493],[-3.5358,51.5457],[-3.5444,51.5447],[-3.5443,51.5411],[-3.5371,51.5403],[-3.5368,51.5322],[-3.5482,51.5284],[-3.548,51.5239],[-3.5377,51.516],[-3.5334,51.5169],[-3.5321,51.5224],[-3.5192,51.5225],[-3.5104,51.519],[-3.5116,51.5109],[-3.5058,51.5119],[-3.5029,51.5092],[-3.4985,51.5102],[-3.4986,51.5129],[-3.4857,51.513],[-3.4927,51.5067],[-3.497,51.5066],[-3.4982,51.5003],[-3.5068,51.4975],[-3.5067,51.4939],[-3.4748,51.4898],[-3.4804,51.4834],[-3.4933,51.4814],[-3.496,51.4778],[-3.509,51.4785],[-3.5118,51.4758],[-3.522,51.4784],[-3.5266,51.4873],[-3.5308,51.4828],[-3.5394,51.4826],[-3.5376,51.4701],[-3.5432,51.4655],[-3.5429,51.4583],[-3.5212,51.4532],[-3.5128,51.4605],[-3.5025,51.4543],[-3.5023,51.4471],[-3.5223,51.4432],[-3.5264,51.436],[-3.5335,51.4332],[-3.5318,51.426],[-3.5417,51.4223],[-3.543,51.4178],[-3.5543,51.4113]],[[-3.5299,51.499],[-3.5299,51.499]]],[[[-3.4924,51.4986],[-3.4939,51.5003],[-3.4911,51.5022],[-3.4867,51.5013],[-3.488,51.4977],[-3.4924,51.4986]]],[[[-3.503,51.5146],[-3.5002,51.5165],[-3.4972,51.5138],[-3.503,51.5146]]]]},"properties":{"gsp":"PYLE_1","group":"_K","centroid_lon":-3.53311,"centroid_lat":51.47822}},{"type":"Feature","geometry":{"type":"MultiPolygon","coordinates":[[[[-3.1192,51.3751],[-3.1212,51.3787],[-3.1127,51.3786],[-3.1123,51.3752],[-3.1192,51.3751]]],[[[-3.143,51.3838],[-3.1407,51.3838],[-3.143,51.3838]]],[[[-3.192,51.4804],[-3.1834,51.4823],[-3.1832,51.476],[-3.1803,51.4751],[-3.1831,51.4697],[-3.1904,51.4723],[-3.1902,51.4687],[-3.1801,51.4661],[-3.1816,51.4688],[-3.1787,51.4697],[-3.1743,51.4662],[-3.1701,51.4707],[-3.1658,51.4707],[-3.1661,51.4815],[-3.1618,51.4816],[-3.1588,51.4771],[-3.1428,51.4719],[-3.1397,51.462],[-3.1341,51.4586],[-3.1543,51.4449],[-3.1609,51.4264],[-3.1616,51.4044],[-3.1896,51.3913],[-3.2361,51.3924],[-3.2757,51.3816],[-3.3046,51.3873],[-3.3373,51.377],[-3.3613,51.3794],[-3.3995,51.3775],[-3.416,51.3834],[-3.4477,51.3842],[-3.5194,51.3946],[-3.5463,51.3937],[-3.5634,51.3984],[-3.5722,51.4094],[-3.5529,51.4113],[-3.5501,51.4159],[-3.543,51.4178],[-3.5431,51.4214],[-3.5318,51.426],[-3.5335,51.4332],[-3.5264,51.436],[-3.5223,51.4432],[-3.5023,51.4471],[-3.5025,51.4543],[-3.5128,51.4605],[-3.5212,51.4532],[-3.5429,51.4583],[-3.5432,51.4655],[-3.5376,51.4701],[-3.5408,51.4808],[-3.5308,51.4828],[-3.5266,51.4873],[-3.522,51.4784],[-3.5118,51.4758],[-3.509,51.4785],[-3.496,51.4778],[-3.4933,51.4814],[-3.4804,51.4834],[-3.4748,51.4898],[-3.4763,51.4915],[-3.4878,51.4896],[-3.5067,51.4939],[-3.5068,51.4975],[-3.4982,51.5003],[-3.497,51.5066],[-3.4927,51.5067],[-3.4871,51.5121],[-3.4697,51.5087],[-3.4782,51.505],[-3.4765,51.4988],[-3.4637,51.5025],[-3.4549,51.4972],[-3.4491,51.4982],[-3.4421,51.5055],[-3.432,51.5047],[-3.4236,51.5111],[-3.4178,51.5103],[-3.4191,51.5058],[-3.3947,51.5087],[-3.3931,51.5052],[-3.4016,51.5015],[-3.4015,51.4979],[-3.387,51.4954],[-3.3868,51.489],[-3.3924,51.4827],[-3.3749,51.4748],[-3.3703,51.4676],[-3.3574,51.4678],[-3.3586,51.4606],[-3.3658,51.4596],[-3.3656,51.4542],[-3.3598,51.4534],[-3.344,51.4535],[-3.3485,51.4616],[-3.3342,51.4635],[-3.33,51.4672],[-3.3213,51.4655],[-3.3168,51.4592],[-3.3038,51.4594],[-3.2936,51.4541],[-3.285,51.4569],[-3.2765,51.4624],[-3.2796,51.4686],[-3.2769,51.4741],[-3.2842,51.4794],[-3.2873,51.4866],[-3.2686,51.4877],[-3.2588,51.5004],[-3.2677,51.5057],[-3.2664,51.5111],[-3.2535,51.5149],[-3.2463,51.5149],[-3.2476,51.5113],[-3.2447,51.5086],[-3.233,51.5061],[-3.2328,51.4971],[-3.2011,51.4965],[-3.1967,51.4938],[-3.1994,51.4875],[-3.1892,51.4831],[-3.192,51.4804]],[[-3.1935,51.4822],[-3.1935,51.4822]],[[-3.1685,51.4644],[-3.1657,51.4653],[-3.17,51.4671],[-3.1714,51.4644],[-3.1685,51.4644]],[[-3.1642,51.4654],[-3.1627,51.4618],[-3.1614,51.4663],[-3.1658,51.4698],[-3.1642,51.4654]],[[-3.1599,51.4636],[-3.1599,51.4636]],[[-3.1728,51.4644],[-3.1728,51.4644]],[[-3.1684,51.4617],[-3.17,51.4635],[-3.1684,51.4617]],[[-3.4925,51.5012],[-3.4924,51.4977],[-3.4866,51.4986],[-3.4882,51.5022],[-3.4925,51.5012]],[[-3.5364,51.4782],[-3.5378,51.4755],[-3.5292,51.4774],[-3.5293,51.4819],[-3.5364,51.4782]]],[[[-3.1688,51.4761],[-3.1688,51.4761]]]]},"properties":{"gsp":"ABTH_1","group":"_K","centroid_lon":-3.11613,"centroid_lat":51.37739}},{"type":"Feature","geometry":{"type":"MultiPolygon","coordinates":[[[[-3.1699,51.4626],[-3.1699,51.4626]]],[[[-3.1728,51.4635],[-3.1728,51.4635]]],[[[-3.17,51.4662],[-3.1656,51.4644],[-3.1714,51.4644],[-3.17,51.4662]]],[[[-3.1935,51.4813],[-3.1935,51.4813]]],[[[-3.1599,51.4645],[-3.1599,51.4645]]],[[[-3.1657,51.468],[-3.1643,51.4699],[-3.1642,51.4663],[-3.1614,51.4663],[-3.1613,51.4627],[-3.1641,51.4618],[-3.1657,51.468]]],[[[-3.1891,51.4813],[-3.1994,51.4875],[-3.1967,51.4938],[-3.2011,51.4965],[-3.2328,51.4971],[-3.233,51.5061],[-3.2447,51.5086],[-3.2476,51.5113],[-3.2463,51.5176],[-3.2536,51.5203],[-3.2479,51.5221],[-3.2478,51.5194],[-3.2407,51.5213],[-3.2391,51.5186],[-3.2334,51.5187],[-3.2307,51.525],[-3.2336,51.5259],[-3.2338,51.5331],[-3.2397,51.5375],[-3.2413,51.5438],[-3.2283,51.5439],[-3.2285,51.5529],[-3.2215,51.5584],[-3.2216,51.5656],[-3.2087,51.5648],[-3.2027,51.5595],[-3.1825,51.5579],[-3.1652,51.5599],[-3.161,51.5653],[-3.1422,51.5628],[-3.1336,51.5683],[-3.109,51.5631],[-3.1045,51.5596],[-3.093,51.5588],[-3.083,51.5634],[-3.0858,51.5588],[-3.0755,51.5544],[-3.0754,51.5472],[-3.0695,51.5428],[-3.0565,51.5411],[-3.0462,51.534],[-3.0362,51.5395],[-3.0261,51.5378],[-3.026,51.5333],[-3.0303,51.5305],[-3.0272,51.5243],[-3.0314,51.5197],[-3.0313,51.5144],[-3.089,51.4907],[-3.1109,51.4861],[-3.1341,51.4586],[-3.1397,51.462],[-3.1428,51.4719],[-3.1588,51.4771],[-3.1618,51.4816],[-3.1661,51.4815],[-3.1673,51.4743],[-3.1644,51.4735],[-3.1701,51.468],[-3.1758,51.4661],[-3.1802,51.4697],[-3.1801,51.4661],[-3.183,51.4661],[-3.1845,51.4688],[-3.1902,51.4687],[-3.1904,51.4723],[-3.1831,51.4697],[-3.1803,51.4733],[-3.1834,51.4823],[-3.1891,51.4813]],[[-3.1703,51.477],[-3.1703,51.477]],[[-3.229,51.5178],[-3.2248,51.5197],[-3.2305,51.5196],[-3.2319,51.5178],[-3.229,51.5178]]]]},"properties":{"gsp":"CARE_1","group":"_K","centroid_lon":-3.1693,"centroid_lat":51.4626}},{"type":"Feature","geometry":{"type":"MultiPolygon","coordinates":[[[[-5.0568,51.6109],[-5.0568,51.6109]]],[[[-5.6685,51.7189],[-5.6711,51.7199],[-5.6682,51.7209],[-5.6685,51.7189]]],[[[-5.4827,51.7288],[-5.4829,51.7316],[-5.477,51.7319],[-5.4827,51.7288]]],[[[-4.7831,52.0639],[-4.7753,52.056],[-4.7663,52.0526],[-4.7675,52.049],[-4.7645,52.0463],[-4.7554,52.0421],[-4.7581,52.0375],[-4.777,52.0361],[-4.7751,52.029],[-4.7777,52.0244],[-4.7644,52.022],[-4.7652,52.0112],[-4.7622,52.0104],[-4.7496,52.0188],[-4.7499,52.0233],[-4.747,52.0242],[-4.7218,52.0176],[-4.7095,52.0071],[-4.7253,52.0031],[-4.7236,51.9978],[-4.7147,51.9962],[-4.7113,51.9882],[-4.7139,51.9836],[-4.7047,51.9757],[-4.7084,51.9639],[-4.7169,51.961],[-4.7361,51.9642],[-4.7592,51.9609],[-4.7663,51.9572],[-4.7655,51.9455],[-4.7433,51.9388],[-4.7386,51.9344],[-4.7255,51.9329],[-4.7261,51.9203],[-4.7085,51.9171],[-4.7044,51.9217],[-4.6972,51.9228],[-4.6955,51.9201],[-4.6796,51.9205],[-4.6705,51.9153],[-4.6688,51.9099],[-4.6498,51.9103],[-4.6467,51.9068],[-4.6578,51.8975],[-4.6504,51.895],[-4.6502,51.8914],[-4.6371,51.8917],[-4.644,51.8852],[-4.6436,51.8789],[-4.6623,51.8749],[-4.6635,51.8704],[-4.6604,51.8669],[-4.6674,51.8622],[-4.6762,51.8638],[-4.689,51.8599],[-4.6917,51.8562],[-4.69,51.8518],[-4.6942,51.8481],[-4.691,51.8445],[-4.6964,51.8372],[-4.7095,51.8378],[-4.7133,51.8287],[-4.6842,51.8276],[-4.684,51.8231],[-4.691,51.8202],[-4.6909,51.8175],[-4.6892,51.814],[-4.6791,51.8142],[-4.6787,51.8079],[-4.6757,51.8062],[-4.6684,51.8064],[-4.6643,51.8109],[-4.6527,51.8103],[-4.6478,51.8005],[-4.6575,51.794],[-4.6327,51.791],[-4.628,51.7856],[-4.6391,51.7773],[-4.6316,51.7721],[-4.6158,51.7751],[-4.6119,51.7824],[-4.59,51.7802],[-4.5787,51.7858],[-4.5791,51.793],[-4.5644,51.7907],[-4.5628,51.7871],[-4.5625,51.7826],[-4.5724,51.7779],[-4.5764,51.7715],[-4.5939,51.7729],[-4.598,51.7683],[-4.6212,51.7687],[-4.6267,51.7623],[-4.6207,51.7597],[-4.619,51.7552],[-4.6242,51.7443],[-4.6327,51.7414],[-4.6334,51.7288],[-4.6727,51.7219],[-4.6861,51.7107],[-4.6852,51.7052],[-4.6752,51.6995],[-4.6736,51.695],[-4.6901,51.6791],[-4.6869,51.6685],[-4.7041,51.6573],[-4.6689,51.6404],[-4.6682,51.6352],[-4.6787,51.626],[-4.7034,51.6278],[-4.7282,51.6373],[-4.7606,51.638],[-4.7836,51.6305],[-4.8152,51.6383],[-4.8502,51.6412],[-4.857,51.6352],[-4.8881,51.6247],[-4.8905,51.6183],[-4.889,51.6077],[-4.9102,51.6033],[-4.923,51.5922],[-4.948,51.5928],[-4.983,51.6047],[-5.0094,51.6045],[-5.0362,51.6127],[-5.0638,51.6158],[-5.0688,51.62],[-5.0693,51.6256],[-5.058,51.6403],[-5.0706,51.6583],[-5.1241,51.666],[-5.1578,51.6808],[-5.1704,51.675],[-5.1796,51.6751],[-5.1933,51.6874],[-5.1966,51.7039],[-5.2267,51.7105],[-5.2374,51.708],[-5.2717,51.6895],[-5.2904,51.6883],[-5.2962,51.6938],[-5.2863,51.7028],[-5.2636,51.7081],[-5.2444,51.72],[-5.2486,51.724],[-5.2631,51.7274],[-5.3003,51.7242],[-5.3187,51.7329],[-5.3165,51.7419],[-5.3044,51.7498],[-5.2803,51.7448],[-5.2145,51.7387],[-5.2086,51.7563],[-5.1795,51.7775],[-5.1182,51.775],[-5.1114,51.7834],[-5.1124,51.8099],[-5.1222,51.8242],[-5.1233,51.8379],[-5.1344,51.8539],[-5.1411,51.8562],[-5.1586,51.8543],[-5.17,51.8574],[-5.2028,51.8532],[-5.2199,51.8655],[-5.2303,51.8668],[-5.2877,51.8569],[-5.3402,51.8418],[-5.3475,51.8446],[-5.3622,51.8621],[-5.3828,51.8699],[-5.4051,51.8484],[-5.4126,51.8472],[-5.4187,51.8503],[-5.4014,51.8756],[-5.4022,51.8988],[-5.3919,51.9056],[-5.3801,51.904],[-5.3779,51.8833],[-5.3475,51.8802],[-5.3132,51.9093],[-5.2927,51.9166],[-5.2626,51.9189],[-5.2389,51.9318],[-5.2217,51.9355],[-5.1989,51.9524],[-5.1645,51.9524],[-5.1428,51.9678],[-5.0932,51.9732],[-5.1022,51.9935],[-5.0991,52.0132],[-5.0927,52.0231],[-5.0798,52.0338],[-5.0633,52.0352],[-5.0161,52.0272],[-4.9874,52.0284],[-4.978,52.0195],[-4.9627,52.0148],[-4.9638,52.0097],[-4.9738,52.0069],[-4.9616,52.0051],[-4.9267,52.016],[-4.9236,52.0194],[-4.9231,52.0299],[-4.9147,52.0371],[-4.8969,52.0362],[-4.8802,52.0246],[-4.8489,52.0266],[-4.8469,52.0295],[-4.854,52.039],[-4.8412,52.0525],[-4.8246,52.0583],[-4.7831,52.0639]]]]},"properties":{"gsp":"PEMB_1","group":"_K","centroid_lon":-5.05623,"centroid_lat":51.61117}},{"type":"Feature","geometry":{"type":"MultiPolygon","coordinates":[[[[-3.5765,51.8459],[-3.5969,51.8483],[-3.6056,51.8464],[-3.6546,51.8754],[-3.6869,51.8839],[-3.7015,51.8847],[-3.726,51.9176],[-3.722,51.9267],[-3.7386,51.9417],[-3.726,51.9536],[-3.7381,51.9669],[-3.7296,51.9716],[-3.7255,51.9788],[-3.7037,51.9818],[-3.701,51.9864],[-3.6764,51.9912],[-3.6636,51.9995],[-3.6476,52.0024],[-3.635,52.0152],[-3.6457,52.0295],[-3.675,52.0318],[-3.6898,52.037],[-3.6884,52.0406],[-3.7007,52.0575],[-3.6982,52.0665],[-3.7176,52.078],[-3.7257,52.0977],[-3.7157,52.1059],[-3.7153,52.132],[-3.7546,52.1647],[-3.7509,52.1819],[-3.7505,52.2089],[-3.689,52.2476],[-3.6876,52.29],[-3.6864,52.2972],[-3.6821,52.2999],[-3.6861,52.3662],[-3.6767,52.368],[-3.6651,52.3552],[-3.6557,52.3553],[-3.6341,52.3696],[-3.6006,52.3585],[-3.5848,52.3577],[-3.5924,52.3712],[-3.5726,52.3714],[-3.5536,52.392],[-3.5343,52.4033],[-3.513,52.4114],[-3.4907,52.4026],[-3.4881,52.3923],[-3.4754,52.391],[-3.4356,52.4031],[-3.4104,52.43],[-3.3954,52.4316],[-3.4019,52.4373],[-3.3626,52.444],[-3.345,52.4356],[-3.3336,52.4403],[-3.3266,52.4369],[-3.3323,52.4304],[-3.3289,52.417],[-3.3157,52.4171],[-3.2979,52.4247],[-3.2919,52.4219],[-3.2524,52.3813],[-3.227,52.3817],[-3.2084,52.365],[-3.1604,52.3659],[-3.1602,52.3565],[-3.1539,52.3519],[-3.1335,52.3518],[-3.1283,52.3456],[-3.1191,52.3433],[-3.1026,52.3451],[-3.0945,52.3373],[-3.1023,52.3355],[-3.0979,52.33],[-3.1059,52.3253],[-3.0982,52.3234],[-3.1028,52.321],[-3.0984,52.3162],[-3.11,52.3047],[-3.1053,52.3004],[-3.1273,52.3002],[-3.136,52.2966],[-3.1374,52.2929],[-3.1637,52.2909],[-3.1694,52.2836],[-3.2074,52.2779],[-3.2084,52.2616],[-3.2024,52.2554],[-3.202,52.2428],[-3.1755,52.2368],[-3.165,52.227],[-3.1649,52.2234],[-3.1779,52.216],[-3.1775,52.2007],[-3.1818,52.1962],[-3.217,52.1976],[-3.2242,52.1949],[-3.218,52.1823],[-3.2045,52.1707],[-3.2043,52.1645],[-3.2187,52.1544],[-3.1994,52.1438],[-3.2079,52.1347],[-3.2032,52.124],[-3.193,52.125],[-3.1874,52.1313],[-3.1726,52.1279],[-3.1668,52.1279],[-3.1611,52.1325],[-3.1508,52.1308],[-3.1466,52.1398],[-3.1349,52.1399],[-3.132,52.1382],[-3.1347,52.1375],[-3.13,52.1246],[-3.1048,52.1186],[-3.1042,52.105],[-3.1214,52.1024],[-3.1177,52.0869],[-3.1044,52.0782],[-3.072,52.0752],[-3.065,52.0658],[-3.0647,52.0493],[-3.0769,52.0391],[-3.085,52.0407],[-3.098,52.0222],[-3.0876,52.0146],[-3.0665,51.9831],[-3.0376,51.9656],[-3.0348,51.9597],[-3.0246,51.9568],[-3.0119,51.9444],[-3.0072,51.9377],[-3.009,51.9303],[-3.0065,51.9265],[-2.9976,51.9231],[-2.9756,51.9273],[-2.9698,51.9131],[-2.974,51.909],[-2.9671,51.904],[-2.9514,51.9055],[-2.9325,51.9146],[-2.9264,51.9135],[-2.9028,51.9247],[-2.8909,51.9251],[-2.8858,51.9278],[-2.8869,51.9331],[-2.8768,51.9334],[-2.866,51.9226],[-2.8514,51.9191],[-2.8437,51.9216],[-2.8619,51.9168],[-2.8606,51.9135],[-2.8524,51.9129],[-2.8521,51.9154],[-2.8439,51.9147],[-2.8407,51.9173],[-2.8359,51.9134],[-2.8351,51.9058],[-2.8198,51.9048],[-2.7998,51.8899],[-2.7672,51.8802],[-2.7755,51.8729],[-2.7778,51.8663],[-2.7659,51.8597],[-2.7553,51.8455],[-2.7317,51.8387],[-2.7263,51.8397],[-2.7182,51.8484],[-2.7113,51.8392],[-2.7057,51.8391],[-2.7038,51.8453],[-2.6961,51.8444],[-2.6918,51.8361],[-2.6816,51.8381],[-2.6651,51.8353],[-2.6573,51.8326],[-2.656,51.8267],[-2.6485,51.8245],[-2.6595,51.8223],[-2.6582,51.8103],[-2.6713,51.8084],[-2.6772,51.8026],[-2.6704,51.7948],[-2.6745,51.7877],[-2.6719,51.7839],[-2.674,51.7756],[-2.6792,51.7683],[-2.6726,51.7599],[-2.6614,51.7532],[-2.6719,51.7353],[-2.6784,51.7401],[-2.6973,51.7418],[-2.7044,51.7364],[-2.7377,51.7299],[-2.7435,51.7335],[-2.7436,51.7379],[-2.7524,51.7415],[-2.7713,51.7441],[-2.7727,51.7414],[-2.7814,51.7422],[-2.7842,51.7368],[-2.7943,51.7358],[-2.8074,51.7393],[-2.8104,51.7465],[-2.8163,51.7501],[-2.8279,51.75],[-2.8365,51.7454],[-2.841,51.7508],[-2.8381,51.7553],[-2.844,51.758],[-2.8456,51.7652],[-2.8544,51.7714],[-2.8516,51.775],[-2.8429,51.7769],[-2.8445,51.7823],[-2.8823,51.7883],[-2.8982,51.7864],[-2.8938,51.7828],[-2.8952,51.7792],[-2.8864,51.7739],[-2.8863,51.7703],[-2.9023,51.7711],[-2.9007,51.7657],[-2.8919,51.7612],[-2.8918,51.7576],[-2.9004,51.7513],[-2.9091,51.7521],[-2.918,51.7583],[-2.9181,51.7628],[-2.9297,51.7654],[-2.9299,51.7735],[-2.9574,51.7724],[-2.959,51.7796],[-2.9648,51.7796],[-2.9734,51.7741],[-2.9747,51.7678],[-2.9703,51.7642],[-2.9819,51.7623],[-2.976,51.7588],[-2.9759,51.7543],[-2.9832,51.756],[-2.986,51.7515],[-3.0006,51.7559],[-3.0105,51.7486],[-3.0323,51.7484],[-3.0499,51.759],[-3.056,51.7698],[-3.0704,51.766],[-3.0818,51.756],[-3.0906,51.7604],[-3.1066,51.7612],[-3.1122,51.7567],[-3.1134,51.7458],[-3.1046,51.7387],[-3.1058,51.7297],[-3.097,51.7253],[-3.0924,51.7172],[-3.1095,51.7045],[-3.1094,51.6982],[-3.1165,51.6945],[-3.1178,51.69],[-3.1236,51.6899],[-3.125,51.6854],[-3.1031,51.6793],[-3.0956,51.6695],[-3.0927,51.6695],[-3.0872,51.6786],[-3.0743,51.6841],[-3.0611,51.6797],[-3.061,51.6734],[-3.0695,51.6652],[-3.0896,51.6578],[-3.0948,51.6362],[-3.112,51.6297],[-3.1173,51.609],[-3.1273,51.6062],[-3.139,51.6078],[-3.1562,51.6032],[-3.1664,51.6085],[-3.1736,51.6048],[-3.1794,51.6056],[-3.1896,51.611],[-3.1956,51.6181],[-3.2202,51.6205],[-3.2276,51.6241],[-3.2349,51.6285],[-3.2306,51.6303],[-3.2322,51.6339],[-3.2293,51.6349],[-3.234,51.6465],[-3.2558,51.6517],[-3.2604,51.6624],[-3.2719,51.6596],[-3.2633,51.6633],[-3.2649,51.6678],[-3.2534,51.6706],[-3.2522,51.6787],[-3.2757,51.692],[-3.2789,51.7],[-3.2571,51.6976],[-3.2572,51.7021],[-3.2616,51.7038],[-3.2617,51.7074],[-3.2574,51.7084],[-3.2603,51.711],[-3.2576,51.7183],[-3.2342,51.7095],[-3.2241,51.7114],[-3.2275,51.7294],[-3.2233,51.7357],[-3.2292,51.7393],[-3.2293,51.7429],[-3.2367,51.7455],[-3.2399,51.7572],[-3.2515,51.7561],[-3.2585,51.748],[-3.2658,51.7497],[-3.269,51.7632],[-3.2635,51.7731],[-3.265,51.7758],[-3.2839,51.7774],[-3.29,51.7854],[-3.2889,51.7963],[-3.2933,51.7998],[-3.33,51.812],[-3.3453,51.8406],[-3.3471,51.8523],[-3.3619,51.8603],[-3.3755,51.8763],[-3.4338,51.8819],[-3.4518,51.8529],[-3.4937,51.8451],[-3.5202,51.8565],[-3.5634,51.8451],[-3.5765,51.8459]]]]},"properties":{"gsp":"RASS_1","group":"_K","centroid_lon":-3.22967,"centroid_lat":51.93048}},{"type":"Feature","geometry":{"type":"MultiPolygon","coordinates":[[[[-3.4815,51.6499],[-3.4815,51.6499]]],[[[-4.6498,51.9103],[-4.6688,51.9099],[-4.6705,51.9153],[-4.6796,51.9205],[-4.6955,51.9201],[-4.6972,51.9228],[-4.7044,51.9217],[-4.7085,51.9171],[-4.7261,51.9203],[-4.7255,51.9329],[-4.7386,51.9344],[-4.7433,51.9388],[-4.7655,51.9455],[-4.7663,51.9572],[-4.755,51.9628],[-4.7361,51.9642],[-4.7169,51.961],[-4.7084,51.9639],[-4.7045,51.9721],[-4.7063,51.9784],[-4.7139,51.9836],[-4.7113,51.9882],[-4.7147,51.9962],[-4.7236,51.9978],[-4.7253,52.0022],[-4.7096,52.008],[-4.7218,52.0176],[-4.7277,52.0175],[-4.7412,52.0244],[-4.7499,52.0233],[-4.7496,52.0188],[-4.7593,52.0104],[-4.7652,52.0112],[-4.7644,52.022],[-4.7777,52.0244],[-4.7751,52.029],[-4.777,52.0361],[-4.7581,52.0375],[-4.7554,52.0421],[-4.7645,52.0463],[-4.7675,52.049],[-4.7663,52.0526],[-4.7753,52.056],[-4.777,52.0605],[-4.7831,52.0639],[-4.7927,52.0639],[-4.7672,52.0816],[-4.7533,52.0973],[-4.7536,52.1057],[-4.7348,52.1202],[-4.6927,52.1358],[-4.6406,52.1415],[-4.5886,52.1418],[-4.5647,52.1477],[-4.5376,52.139],[-4.5188,52.1396],[-4.5036,52.1454],[-4.4779,52.1631],[-4.4703,52.1755],[-4.4279,52.1857],[-4.379,52.2182],[-4.363,52.2219],[-4.3468,52.2147],[-4.3244,52.218],[-4.2607,52.2506],[-4.2365,52.2557],[-4.2106,52.268],[-4.1896,52.2919],[-4.1735,52.2998],[-4.154,52.2955],[-4.1395,52.2872],[-4.1297,52.2893],[-4.1124,52.2736],[-4.0747,52.2622],[-4.0321,52.29],[-4.0177,52.3197],[-3.9856,52.3259],[-3.9775,52.3209],[-3.9749,52.3151],[-3.959,52.3125],[-3.9609,52.3014],[-3.945,52.2978],[-3.9431,52.3089],[-3.9302,52.3202],[-3.9208,52.3204],[-3.9156,52.3277],[-3.8748,52.3337],[-3.8676,52.3304],[-3.8535,52.3321],[-3.8514,52.3379],[-3.8113,52.3419],[-3.7896,52.3514],[-3.7644,52.3533],[-3.7355,52.3599],[-3.7231,52.3659],[-3.7111,52.3613],[-3.6861,52.3662],[-3.6821,52.2999],[-3.6864,52.2972],[-3.6876,52.29],[-3.689,52.2476],[-3.7491,52.2116],[-3.7546,52.1647],[-3.7153,52.132],[-3.7157,52.1059],[-3.7256,52.0959],[-3.7161,52.0762],[-3.6982,52.0665],[-3.7007,52.0575],[-3.6884,52.0406],[-3.6898,52.037],[-3.675,52.0318],[-3.6457,52.0295],[-3.6349,52.0143],[-3.6476,52.0024],[-3.6636,51.9995],[-3.6735,51.9922],[-3.701,51.9864],[-3.7037,51.9818],[-3.7255,51.9788],[-3.7296,51.9716],[-3.7381,51.9669],[-3.726,51.9536],[-3.7386,51.9417],[-3.722,51.9267],[-3.726,51.9176],[-3.7015,51.8847],[-3.6869,51.8839],[-3.6546,51.8754],[-3.6056,51.8464],[-3.5969,51.8483],[-3.5634,51.8451],[-3.5187,51.8565],[-3.4922,51.8452],[-3.4899,51.8182],[-3.4839,51.8138],[-3.4807,51.8039],[-3.4658,51.7924],[-3.4624,51.7771],[-3.4752,51.768],[-3.4751,51.7653],[-3.4573,51.7538],[-3.4486,51.7539],[-3.4373,51.763],[-3.434,51.7523],[-3.4281,51.7469],[-3.4247,51.7317],[-3.4101,51.7283],[-3.4042,51.7238],[-3.4041,51.7211],[-3.4112,51.7174],[-3.411,51.712],[-3.4139,51.7102],[-3.4123,51.7066],[-3.405,51.704],[-3.4281,51.701],[-3.428,51.6983],[-3.4222,51.6975],[-3.4263,51.692],[-3.4191,51.6912],[-3.42,51.6741],[-3.433,51.6731],[-3.4679,51.6789],[-3.4721,51.6735],[-3.4864,51.6688],[-3.4852,51.6751],[-3.4982,51.674],[-3.4994,51.6695],[-3.4862,51.6634],[-3.4933,51.6588],[-3.4946,51.6543],[-3.4886,51.648],[-3.4814,51.6472],[-3.4987,51.6452],[-3.5028,51.6398],[-3.5215,51.6377],[-3.5449,51.6446],[-3.554,51.6562],[-3.5715,51.6587],[-3.5878,51.6702],[-3.5909,51.6764],[-3.5885,51.6918],[-3.5993,51.7105],[-3.6541,51.7017],[-3.6665,51.6862],[-3.6909,51.6786],[-3.7082,51.6775],[-3.7266,51.6673],[-3.7353,51.6672],[-3.7481,51.6616],[-3.7463,51.6508],[-3.7547,51.6453],[-3.7586,51.6344],[-3.741,51.6284],[-3.738,51.6239],[-3.7137,51.6306],[-3.6861,51.6292],[-3.6786,51.6221],[-3.6784,51.6158],[-3.6896,51.6057],[-3.7053,51.6001],[-3.7047,51.5848],[-3.7277,51.5827],[-3.7402,51.5681],[-3.7473,51.5653],[-3.7718,51.5649],[-3.7745,51.5594],[-3.783,51.5587],[-3.7896,51.5639],[-3.8125,51.5665],[-3.8233,51.5757],[-3.8161,51.5864],[-3.8629,51.6143],[-3.8883,51.6121],[-3.9202,51.6012],[-3.9393,51.6076],[-3.9602,51.6055],[-3.9756,51.5996],[-3.9864,51.5916],[-3.9901,51.5813],[-3.986,51.5767],[-3.9633,51.5691],[-3.9625,51.5647],[-3.968,51.5613],[-4.0202,51.5587],[-4.034,51.5619],[-4.0615,51.5528],[-4.1119,51.5644],[-4.1316,51.564],[-4.1472,51.5578],[-4.1373,51.5465],[-4.1379,51.5415],[-4.1439,51.5378],[-4.1527,51.5363],[-4.1917,51.5426],[-4.196,51.5412],[-4.1985,51.5336],[-4.209,51.5319],[-4.2399,51.5386],[-4.2841,51.5557],[-4.3382,51.5613],[-4.3402,51.5639],[-4.3379,51.5674],[-4.3177,51.5716],[-4.2966,51.5836],[-4.301,51.5938],[-4.3179,51.6055],[-4.3195,51.6102],[-4.313,51.6141],[-4.2869,51.6192],[-4.2762,51.6272],[-4.264,51.6311],[-4.2526,51.6477],[-4.2452,51.652],[-4.2361,51.6509],[-4.2232,51.6408],[-4.2047,51.64],[-4.1811,51.6303],[-4.126,51.6466],[-4.1173,51.6538],[-4.1544,51.6504],[-4.177,51.6641],[-4.1864,51.6746],[-4.206,51.6786],[-4.2529,51.6728],[-4.2644,51.6667],[-4.2785,51.6647],[-4.3231,51.6711],[-4.351,51.6901],[-4.387,51.7216],[-4.3885,51.7273],[-4.3856,51.732],[-4.3696,51.7343],[-4.3805,51.745],[-4.3783,51.7643],[-4.4013,51.7518],[-4.4306,51.7571],[-4.4131,51.7466],[-4.4118,51.7412],[-4.4188,51.7358],[-4.4476,51.7272],[-4.4678,51.7266],[-4.5525,51.7354],[-4.5766,51.7291],[-4.6129,51.7315],[-4.6334,51.7288],[-4.6327,51.7414],[-4.6242,51.7443],[-4.619,51.7552],[-4.6207,51.7597],[-4.6267,51.7623],[-4.6226,51.7678],[-4.598,51.7683],[-4.5939,51.7729],[-4.5764,51.7715],[-4.5724,51.7779],[-4.5625,51.7826],[-4.5628,51.7871],[-4.5644,51.7907],[-4.5791,51.793],[-4.5787,51.7858],[-4.59,51.7802],[-4.6119,51.7824],[-4.6158,51.7751],[-4.6316,51.7721],[-4.6391,51.7773],[-4.628,51.7856],[-4.6327,51.791],[-4.6575,51.794],[-4.6478,51.8005],[-4.6527,51.8103],[-4.6643,51.8109],[-4.6684,51.8064],[-4.6757,51.8062],[-4.6787,51.8079],[-4.6791,51.8142],[-4.6892,51.814],[-4.6909,51.8175],[-4.691,51.8202],[-4.684,51.8231],[-4.6842,51.8276],[-4.7133,51.8287],[-4.7095,51.8378],[-4.6964,51.8372],[-4.691,51.8445],[-4.6942,51.8481],[-4.69,51.8518],[-4.6917,51.8562],[-4.689,51.8599],[-4.6762,51.8638],[-4.6674,51.8622],[-4.6604,51.8669],[-4.6635,51.8704],[-4.6623,51.8749],[-4.6436,51.8789],[-4.644,51.8852],[-4.6371,51.8917],[-4.6502,51.8914],[-4.6504,51.895],[-4.6578,51.8975],[-4.6467,51.9068],[-4.6498,51.9103]]]]},"properties":{"gsp":"SWAN_1","group":"_K","centroid_lon":-3.48086,"centroid_lat":51.64959}},{"type":"Feature","geometry":{"type":"MultiPolygon","coordinates":[[[[-3.5313,51.498],[-3.5285,51.4999],[-3.5313,51.498]]],[[[-3.2247,51.5187],[-3.2319,51.5178],[-3.2247,51.5187]]],[[[-3.5392,51.5169],[-3.548,51.5239],[-3.5482,51.5284],[-3.5368,51.5322],[-3.5371,51.5403],[-3.5443,51.5411],[-3.5444,51.5447],[-3.5344,51.5466],[-3.5346,51.5538],[-3.5318,51.5566],[-3.5018,51.5642],[-3.4963,51.5732],[-3.4964,51.5768],[-3.5067,51.5821],[-3.5069,51.5884],[-3.5027,51.593],[-3.5046,51.6064],[-3.5018,51.6101],[-3.5138,51.6225],[-3.5201,51.6377],[-3.5028,51.6398],[-3.4987,51.6452],[-3.4814,51.6472],[-3.4886,51.648],[-3.4946,51.6543],[-3.4933,51.6588],[-3.4862,51.6634],[-3.4994,51.6695],[-3.4996,51.6731],[-3.4852,51.6751],[-3.4864,51.6688],[-3.4835,51.6688],[-3.4721,51.6735],[-3.4679,51.6789],[-3.433,51.6731],[-3.42,51.6741],[-3.4191,51.6912],[-3.4263,51.692],[-3.4222,51.6975],[-3.428,51.6983],[-3.4281,51.701],[-3.405,51.704],[-3.4123,51.7066],[-3.4139,51.7102],[-3.411,51.712],[-3.4112,51.7174],[-3.4041,51.7211],[-3.4042,51.7238],[-3.4101,51.7283],[-3.4247,51.7317],[-3.4281,51.7469],[-3.434,51.7523],[-3.4373,51.763],[-3.4486,51.7539],[-3.4573,51.7538],[-3.4751,51.7653],[-3.4752,51.768],[-3.4624,51.7762],[-3.4658,51.7924],[-3.4807,51.8039],[-3.4839,51.8138],[-3.4899,51.8182],[-3.4922,51.8452],[-3.4489,51.8538],[-3.4338,51.8819],[-3.374,51.8754],[-3.3619,51.8603],[-3.3471,51.8523],[-3.3453,51.8406],[-3.33,51.812],[-3.2933,51.7998],[-3.2889,51.7963],[-3.29,51.7854],[-3.2839,51.7774],[-3.265,51.7758],[-3.2635,51.7731],[-3.269,51.7632],[-3.2658,51.7497],[-3.2585,51.748],[-3.2515,51.7561],[-3.2399,51.7572],[-3.2367,51.7455],[-3.2293,51.7429],[-3.2292,51.7393],[-3.2233,51.7357],[-3.2275,51.7294],[-3.2241,51.7114],[-3.2342,51.7095],[-3.2576,51.7183],[-3.2603,51.711],[-3.2574,51.7084],[-3.2617,51.7074],[-3.2616,51.7038],[-3.2572,51.7021],[-3.2571,51.6976],[-3.2789,51.7],[-3.2757,51.692],[-3.2522,51.6787],[-3.2534,51.6706],[-3.2649,51.6678],[-3.2633,51.6633],[-3.2719,51.6596],[-3.2604,51.6624],[-3.2558,51.6517],[-3.234,51.6465],[-3.2293,51.6349],[-3.2322,51.6339],[-3.2306,51.6303],[-3.2349,51.6285],[-3.2202,51.6205],[-3.1956,51.6181],[-3.1896,51.611],[-3.175,51.6048],[-3.1708,51.6084],[-3.1606,51.6076],[-3.1562,51.6032],[-3.139,51.6078],[-3.1288,51.6061],[-3.1286,51.5998],[-3.1199,51.5981],[-3.1269,51.59],[-3.1067,51.5892],[-3.0979,51.5848],[-3.0894,51.5903],[-3.0849,51.584],[-3.1077,51.5712],[-3.1193,51.5738],[-3.122,51.5666],[-3.1336,51.5683],[-3.1422,51.5628],[-3.161,51.5653],[-3.1652,51.5599],[-3.1738,51.558],[-3.2027,51.5595],[-3.2087,51.5648],[-3.2216,51.5656],[-3.2215,51.5584],[-3.2285,51.5529],[-3.2283,51.5439],[-3.2413,51.5438],[-3.2397,51.5375],[-3.2338,51.5331],[-3.2336,51.5259],[-3.2307,51.525],[-3.2334,51.5187],[-3.2537,51.5221],[-3.2463,51.5149],[-3.2664,51.5111],[-3.2677,51.5057],[-3.2588,51.5004],[-3.2686,51.4877],[-3.2873,51.4866],[-3.2842,51.4794],[-3.2769,51.4741],[-3.2796,51.4686],[-3.2765,51.4624],[-3.2921,51.4541],[-3.3038,51.4594],[-3.3168,51.4592],[-3.3257,51.4672],[-3.3485,51.4616],[-3.344,51.4535],[-3.3656,51.4542],[-3.3658,51.4596],[-3.3586,51.4606],[-3.3574,51.4678],[-3.3703,51.4676],[-3.3749,51.4748],[-3.3924,51.4827],[-3.3868,51.489],[-3.387,51.4954],[-3.4015,51.4979],[-3.4016,51.5015],[-3.3931,51.5052],[-3.3947,51.5087],[-3.4191,51.5058],[-3.4178,51.5103],[-3.4236,51.5111],[-3.432,51.5047],[-3.4421,51.5055],[-3.4491,51.4982],[-3.4549,51.4972],[-3.4637,51.5025],[-3.478,51.4996],[-3.4782,51.505],[-3.4696,51.5078],[-3.4711,51.5096],[-3.4841,51.5104],[-3.49,51.5139],[-3.4986,51.5129],[-3.5,51.5093],[-3.5116,51.5109],[-3.5104,51.519],[-3.5221,51.5234],[-3.5321,51.5224],[-3.5334,51.5169],[-3.5392,51.5169]],[[-3.48,51.6491],[-3.48,51.6491]],[[-3.5002,51.5156],[-3.5045,51.5146],[-3.4972,51.5138],[-3.5002,51.5156]]]]},"properties":{"gsp":"UPPB_1|UPPB_3","group":"_K","centroid_lon":-3.53022,"centroid_lat":51.49896}},{"type":"Feature","geometry":{"type":"MultiPolygon","coordinates":[[[[-2.7821,51.5232],[-2.7795,51.525],[-2.7821,51.5232]]],[[[-3.0448,51.534],[-3.0565,51.5411],[-3.0739,51.5455],[-3.0755,51.5544],[-3.0858,51.5588],[-3.083,51.5634],[-3.0958,51.5587],[-3.122,51.5657],[-3.1193,51.5738],[-3.1077,51.5712],[-3.0849,51.584],[-3.0894,51.5903],[-3.0979,51.5848],[-3.1067,51.5892],[-3.1269,51.59],[-3.1199,51.5981],[-3.1286,51.5998],[-3.1288,51.6061],[-3.1173,51.609],[-3.112,51.6297],[-3.0948,51.6362],[-3.0896,51.6578],[-3.0695,51.6652],[-3.061,51.6734],[-3.0611,51.6797],[-3.0743,51.6841],[-3.0872,51.6786],[-3.0927,51.6695],[-3.0956,51.6695],[-3.1031,51.6793],[-3.125,51.6854],[-3.1236,51.6899],[-3.1178,51.69],[-3.1165,51.6945],[-3.1094,51.6982],[-3.1095,51.7045],[-3.0924,51.7172],[-3.097,51.7253],[-3.1058,51.7297],[-3.1046,51.7387],[-3.1134,51.7458],[-3.1122,51.7567],[-3.1066,51.7612],[-3.0906,51.7604],[-3.0818,51.756],[-3.0704,51.766],[-3.056,51.7698],[-3.0499,51.759],[-3.0323,51.7484],[-3.0105,51.7486],[-3.0006,51.7559],[-2.986,51.7515],[-2.9832,51.756],[-2.9759,51.7543],[-2.976,51.7588],[-2.9819,51.7623],[-2.9703,51.7642],[-2.9747,51.7678],[-2.9734,51.7741],[-2.9648,51.7796],[-2.959,51.7796],[-2.9574,51.7724],[-2.9299,51.7735],[-2.9297,51.7654],[-2.9181,51.7628],[-2.918,51.7583],[-2.9091,51.7521],[-2.9004,51.7513],[-2.8918,51.7576],[-2.8919,51.7612],[-2.9007,51.7657],[-2.9023,51.7711],[-2.8863,51.7703],[-2.8864,51.7739],[-2.8952,51.7792],[-2.8938,51.7828],[-2.8982,51.7864],[-2.8823,51.7883],[-2.8779,51.7856],[-2.8532,51.7849],[-2.843,51.7805],[-2.8429,51.7769],[-2.8516,51.775],[-2.8544,51.7714],[-2.8456,51.7652],[-2.844,51.758],[-2.8381,51.7553],[-2.841,51.7508],[-2.8365,51.7454],[-2.8279,51.75],[-2.8163,51.7501],[-2.8104,51.7465],[-2.8074,51.7393],[-2.7943,51.7358],[-2.7842,51.7368],[-2.7814,51.7422],[-2.7727,51.7414],[-2.7713,51.7441],[-2.7524,51.7415],[-2.7436,51.7379],[-2.7435,51.7335],[-2.7377,51.7299],[-2.7044,51.7364],[-2.6973,51.7418],[-2.6784,51.7401],[-2.6719,51.7353],[-2.6862,51.7293],[-2.6792,51.7242],[-2.6783,51.7138],[-2.6686,51.7075],[-2.6678,51.7017],[-2.6517,51.7092],[-2.6309,51.7032],[-2.6346,51.7008],[-2.627,51.6986],[-2.6302,51.6947],[-2.6294,51.689],[-2.6213,51.683],[-2.6122,51.6815],[-2.6035,51.6741],[-2.6051,51.6723],[-2.5854,51.6601],[-2.6155,51.6554],[-2.6444,51.6234],[-2.6443,51.618],[-2.6363,51.6104],[-2.6454,51.6003],[-2.6514,51.5984],[-2.6549,51.6006],[-2.6573,51.5961],[-2.6683,51.6024],[-2.6747,51.6023],[-2.7063,51.5786],[-2.7509,51.573],[-2.7891,51.5615],[-2.8369,51.5423],[-2.9039,51.5285],[-2.9202,51.5326],[-2.9552,51.5321],[-2.9831,51.5399],[-2.994,51.5278],[-3.0313,51.5144],[-3.0314,51.5197],[-3.0272,51.5243],[-3.0303,51.5305],[-3.026,51.5333],[-3.0261,51.5378],[-3.0362,51.5395],[-3.0448,51.534]]]]},"properties":{"gsp":"ALST_3|USKM_1","group":"_K","centroid_lon":-2.78106,"centroid_lat":51.52414}},{"type":"Feature","geometry":{"type":"MultiPolygon","coordinates":[[[[-2.3419,51.326],[-2.3626,51.3281],[-2.3669,51.3317],[-2.3741,51.3272],[-2.3813,51.3317],[-2.3927,51.328],[-2.3985,51.3298],[-2.3971,51.337],[-2.39,51.3406],[-2.4001,51.3523],[-2.416,51.3577],[-2.4132,51.3667],[-2.4161,51.3712],[-2.4132,51.3721],[-2.4119,51.3847],[-2.4422,51.3963],[-2.4423,51.4044],[-2.4553,51.4079],[-2.4582,51.4161],[-2.4416,51.4169],[-2.4414,51.4222],[-2.4092,51.4258],[-2.4015,51.4311],[-2.376,51.4322],[-2.3433,51.4391],[-2.3246,51.4365],[-2.3288,51.429],[-2.3126,51.4267],[-2.3114,51.4218],[-2.295,51.4284],[-2.294,51.4259],[-2.2705,51.4209],[-2.2881,51.3934],[-2.2825,51.3697],[-2.2917,51.3571],[-2.3225,51.3493],[-2.3419,51.326]],[[-2.4453,51.4152],[-2.4452,51.4106],[-2.4395,51.4116],[-2.4424,51.4161],[-2.4453,51.4152]]]]},"properties":{"gsp":"MELK_1","group":"_L","centroid_lon":-2.3899,"centroid_lat":51.38325}},{"type":"Feature","geometry":{"type":"MultiPolygon","coordinates":[[[[-2.3144,51.4264],[-2.3274,51.4282],[-2.3289,51.4317],[-2.324,51.4364],[-2.3127,51.4285],[-2.3144,51.4264]]],[[[-2.6028,51.4657],[-2.5999,51.4631],[-2.5941,51.4649],[-2.5926,51.4622],[-2.587,51.4739],[-2.603,51.4802],[-2.5785,51.483],[-2.5857,51.4856],[-2.5829,51.492],[-2.5916,51.4955],[-2.5917,51.4982],[-2.5874,51.4991],[-2.5888,51.5018],[-2.6018,51.5027],[-2.6004,51.5],[-2.6061,51.5008],[-2.6089,51.4954],[-2.6147,51.4972],[-2.6148,51.4999],[-2.6104,51.499],[-2.6119,51.5044],[-2.6076,51.5044],[-2.6091,51.5071],[-2.6033,51.5072],[-2.612,51.5071],[-2.6135,51.5107],[-2.6034,51.5134],[-2.6006,51.518],[-2.6121,51.5197],[-2.6166,51.5296],[-2.6224,51.5296],[-2.6298,51.5412],[-2.6455,51.5312],[-2.6527,51.5312],[-2.66,51.5374],[-2.6513,51.5384],[-2.6485,51.5429],[-2.6587,51.5492],[-2.6659,51.5482],[-2.6687,51.5437],[-2.6787,51.5463],[-2.6698,51.5736],[-2.6474,51.5897],[-2.6419,51.5894],[-2.6413,51.5862],[-2.6351,51.5911],[-2.6325,51.5891],[-2.6347,51.5843],[-2.6255,51.5872],[-2.622,51.5845],[-2.6165,51.5863],[-2.6131,51.5823],[-2.6093,51.5838],[-2.606,51.5911],[-2.5882,51.5834],[-2.5761,51.5891],[-2.5648,51.5884],[-2.5583,51.5914],[-2.5552,51.5838],[-2.5374,51.5764],[-2.5278,51.5683],[-2.5292,51.566],[-2.5163,51.5651],[-2.5172,51.5607],[-2.5123,51.5607],[-2.5151,51.5556],[-2.5257,51.5506],[-2.5168,51.5481],[-2.5169,51.5404],[-2.5228,51.5337],[-2.508,51.5391],[-2.4867,51.5293],[-2.4898,51.5275],[-2.4857,51.5247],[-2.4952,51.5173],[-2.4912,51.5078],[-2.4962,51.5006],[-2.4816,51.4972],[-2.4778,51.5036],[-2.4663,51.5023],[-2.4647,51.5052],[-2.459,51.5039],[-2.4571,51.5074],[-2.445,51.5012],[-2.4276,51.5022],[-2.422,51.4931],[-2.4183,51.4931],[-2.4214,51.4883],[-2.4136,51.4817],[-2.4152,51.4785],[-2.4559,51.4777],[-2.4665,51.4811],[-2.475,51.476],[-2.4863,51.475],[-2.4868,51.4693],[-2.4781,51.4593],[-2.5045,51.4508],[-2.5051,51.4449],[-2.5256,51.4435],[-2.526,51.4361],[-2.5224,51.4321],[-2.5076,51.428],[-2.5069,51.4242],[-2.5015,51.4257],[-2.5058,51.4221],[-2.5014,51.4185],[-2.4913,51.4188],[-2.4971,51.4131],[-2.4941,51.406],[-2.4969,51.4014],[-2.5041,51.3996],[-2.507,51.4032],[-2.5156,51.4014],[-2.5214,51.4049],[-2.5213,51.3977],[-2.5256,51.395],[-2.5141,51.3924],[-2.5039,51.3852],[-2.4853,51.388],[-2.4737,51.3835],[-2.488,51.3745],[-2.488,51.37],[-2.4937,51.3664],[-2.495,51.3546],[-2.5107,51.3474],[-2.515,51.3483],[-2.5221,51.341],[-2.5307,51.3383],[-2.5351,51.3401],[-2.5337,51.3464],[-2.5466,51.3463],[-2.558,51.34],[-2.5624,51.3454],[-2.5725,51.3444],[-2.5783,51.3489],[-2.5869,51.3488],[-2.5898,51.3542],[-2.5856,51.3587],[-2.5798,51.3543],[-2.5683,51.357],[-2.5755,51.3606],[-2.5756,51.3678],[-2.5914,51.3659],[-2.5915,51.3758],[-2.5959,51.3785],[-2.6059,51.3784],[-2.6145,51.3712],[-2.6231,51.3702],[-2.6333,51.3792],[-2.6334,51.3864],[-2.6406,51.3882],[-2.6393,51.3972],[-2.6523,51.4007],[-2.6766,51.3961],[-2.6796,51.4005],[-2.6839,51.4005],[-2.6939,51.3933],[-2.7026,51.3977],[-2.6984,51.404],[-2.7042,51.4103],[-2.7229,51.4093],[-2.7245,51.4174],[-2.7202,51.4192],[-2.7189,51.4273],[-2.7102,51.4301],[-2.7103,51.4355],[-2.7133,51.4372],[-2.7104,51.4427],[-2.7148,51.4444],[-2.7149,51.4489],[-2.7077,51.449],[-2.7077,51.4535],[-2.6804,51.4536],[-2.676,51.4474],[-2.6529,51.4448],[-2.6472,51.4466],[-2.6501,51.452],[-2.6416,51.4611],[-2.6272,51.4584],[-2.6273,51.4647],[-2.6216,51.4711],[-2.6143,51.4693],[-2.61,51.4648],[-2.6099,51.4594],[-2.6056,51.4594],[-2.6071,51.463],[-2.6028,51.4657]],[[-2.5869,51.4658],[-2.5869,51.4658]]],[[[-2.6057,51.4666],[-2.6057,51.4666]]],[[[-2.5857,51.4829],[-2.5857,51.4829]]]]},"properties":{"gsp":"IROA1","group":"_L","centroid_lon":-2.3212,"centroid_lat":51.42992}},{"type":"Feature","geometry":{"type":"MultiPolygon","coordinates":[[[[-2.5664,51.0888],[-2.5679,51.0933],[-2.5794,51.0995],[-2.5781,51.105],[-2.5809,51.1067],[-2.5867,51.1058],[-2.588,51.1022],[-2.5952,51.1031],[-2.5952,51.1067],[-2.6039,51.112],[-2.6054,51.1174],[-2.6126,51.1237],[-2.6127,51.1282],[-2.6198,51.129],[-2.6242,51.1335],[-2.6214,51.1398],[-2.6029,51.1462],[-2.5872,51.1472],[-2.5829,51.1526],[-2.5902,51.1589],[-2.6044,51.1552],[-2.6303,51.1596],[-2.6275,51.165],[-2.6175,51.1678],[-2.6234,51.183],[-2.6206,51.1884],[-2.6307,51.1947],[-2.6436,51.1937],[-2.6451,51.1982],[-2.6394,51.2027],[-2.6308,51.201],[-2.6166,51.2056],[-2.6181,51.2127],[-2.6109,51.2128],[-2.6081,51.2173],[-2.621,51.2181],[-2.6198,51.2308],[-2.6256,51.2352],[-2.6213,51.2406],[-2.6286,51.2442],[-2.633,51.2559],[-2.646,51.2603],[-2.6433,51.2711],[-2.6362,51.2757],[-2.619,51.2785],[-2.619,51.283],[-2.6076,51.283],[-2.6062,51.2875],[-2.5961,51.2867],[-2.5962,51.2903],[-2.5847,51.2939],[-2.5834,51.3002],[-2.5805,51.3012],[-2.5821,51.3083],[-2.5749,51.3102],[-2.5779,51.3192],[-2.5664,51.321],[-2.568,51.3327],[-2.5594,51.3355],[-2.5566,51.3409],[-2.5466,51.3463],[-2.5337,51.3464],[-2.5351,51.3401],[-2.5307,51.3383],[-2.5221,51.341],[-2.515,51.3483],[-2.5107,51.3474],[-2.495,51.3546],[-2.4937,51.3664],[-2.488,51.37],[-2.4866,51.3763],[-2.4752,51.3817],[-2.4737,51.3853],[-2.4853,51.388],[-2.5068,51.3861],[-2.5141,51.3924],[-2.5256,51.395],[-2.5213,51.3977],[-2.5214,51.4049],[-2.5156,51.4014],[-2.507,51.4032],[-2.4998,51.3996],[-2.4941,51.406],[-2.4971,51.4131],[-2.4928,51.4186],[-2.4888,51.417],[-2.4802,51.421],[-2.4682,51.4153],[-2.4582,51.4161],[-2.4553,51.4079],[-2.4423,51.4044],[-2.4422,51.3963],[-2.4119,51.3847],[-2.4132,51.3721],[-2.4161,51.3712],[-2.4132,51.3667],[-2.416,51.3577],[-2.4001,51.3523],[-2.39,51.3406],[-2.3971,51.337],[-2.3985,51.3298],[-2.3927,51.328],[-2.3813,51.3317],[-2.3741,51.3272],[-2.3669,51.3317],[-2.3626,51.3281],[-2.3425,51.3264],[-2.3462,51.3208],[-2.333,51.301],[-2.3599,51.3009],[-2.4029,51.2834],[-2.3912,51.2632],[-2.3727,51.2579],[-2.3609,51.2333],[-2.4085,51.2172],[-2.4045,51.2027],[-2.4443,51.1765],[-2.4434,51.1664],[-2.4678,51.1513],[-2.4677,51.1382],[-2.5021,51.1202],[-2.4805,51.1112],[-2.5477,51.0891],[-2.5664,51.0888]]],[[[-2.4452,51.4106],[-2.4453,51.4161],[-2.4395,51.4134],[-2.4452,51.4106]]],[[[-2.4957,51.4203],[-2.4971,51.4177],[-2.5058,51.4221],[-2.4925,51.4289],[-2.4874,51.425],[-2.4915,51.4204],[-2.4957,51.4203]]],[[[-2.9252,51.2377],[-2.9381,51.2421],[-2.9354,51.2467],[-2.9454,51.2466],[-2.9456,51.2538],[-2.9583,51.2456],[-2.9669,51.2473],[-2.9713,51.2509],[-2.9687,51.2617],[-2.9875,51.2687],[-2.9876,51.275],[-2.9992,51.283],[-3.0008,51.2902],[-3.0191,51.2901],[-3.0144,51.3092],[-3.0154,51.3169],[-3.0326,51.3217],[-3.0388,51.3272],[-3.0308,51.3321],[-2.9947,51.3302],[-2.9909,51.3449],[-3.0044,51.3554],[-3.0054,51.3597],[-2.9718,51.3672],[-2.967,51.3738],[-2.9684,51.3804],[-2.9834,51.387],[-2.9805,51.3921],[-2.9419,51.4017],[-2.9225,51.3997],[-2.9111,51.4024],[-2.9024,51.3905],[-2.9036,51.3801],[-2.9093,51.3774],[-2.9092,51.3738],[-2.9034,51.372],[-2.9062,51.3684],[-2.9033,51.3639],[-2.9118,51.3603],[-2.9074,51.3567],[-2.9146,51.3539],[-2.9074,51.3549],[-2.9087,51.3486],[-2.9058,51.3468],[-2.8942,51.3424],[-2.8873,51.3568],[-2.8758,51.3533],[-2.8686,51.3552],[-2.8731,51.3623],[-2.8674,51.3678],[-2.8718,51.3705],[-2.8603,51.3705],[-2.8588,51.367],[-2.8459,51.3697],[-2.8314,51.3618],[-2.8311,51.3473],[-2.8339,51.3446],[-2.8482,51.3409],[-2.8538,51.3337],[-2.8667,51.3318],[-2.8652,51.3246],[-2.868,51.3237],[-2.8637,51.321],[-2.8636,51.3174],[-2.8692,51.3129],[-2.8807,51.3101],[-2.8851,51.3154],[-2.8923,51.3172],[-2.9079,51.3099],[-2.9079,51.3063],[-2.9035,51.3018],[-2.8878,51.3055],[-2.8819,51.2984],[-2.8733,51.2975],[-2.8717,51.2903],[-2.8744,51.2822],[-2.8643,51.2814],[-2.8627,51.2715],[-2.8584,51.2707],[-2.8553,51.2599],[-2.8266,51.2538],[-2.8235,51.2466],[-2.8264,51.2457],[-2.8263,51.2394],[-2.8363,51.2402],[-2.8462,51.2338],[-2.8651,51.2427],[-2.8751,51.2417],[-2.8878,51.2335],[-2.8979,51.2371],[-2.9252,51.2377]],[[-2.966,51.2698],[-2.963,51.2653],[-2.9559,51.2681],[-2.9603,51.2734],[-2.966,51.2698]]],[[[-3.1038,51.3387],[-3.1114,51.3393],[-3.1057,51.3413],[-3.101,51.3405],[-3.1038,51.3387]]],[[[-2.5884,51.4667],[-2.5855,51.4658],[-2.5884,51.4667]]],[[[-2.6702,51.5437],[-2.6659,51.5482],[-2.6587,51.5492],[-2.6485,51.5429],[-2.6513,51.5384],[-2.66,51.5374],[-2.6527,51.5312],[-2.6455,51.5312],[-2.6298,51.5412],[-2.6224,51.5296],[-2.6166,51.5296],[-2.6121,51.5197],[-2.6006,51.518],[-2.6034,51.5134],[-2.6135,51.5107],[-2.612,51.5071],[-2.6033,51.5072],[-2.6091,51.5071],[-2.6076,51.5044],[-2.6119,51.5044],[-2.6104,51.499],[-2.6148,51.4999],[-2.6147,51.4972],[-2.6089,51.4954],[-2.6061,51.5008],[-2.6004,51.5],[-2.6018,51.5027],[-2.5888,51.5018],[-2.5874,51.4991],[-2.5917,51.4982],[-2.5916,51.4955],[-2.5829,51.492],[-2.5857,51.4856],[-2.5785,51.4839],[-2.5828,51.4812],[-2.603,51.4802],[-2.587,51.4739],[-2.5926,51.4622],[-2.5941,51.4649],[-2.5999,51.4631],[-2.5999,51.4658],[-2.6057,51.4657],[-2.6056,51.4594],[-2.6099,51.4594],[-2.61,51.4648],[-2.6143,51.4693],[-2.6216,51.4711],[-2.6273,51.4647],[-2.6272,51.4584],[-2.6416,51.4611],[-2.6501,51.452],[-2.6472,51.4466],[-2.6529,51.4448],[-2.676,51.4474],[-2.6804,51.4536],[-2.7121,51.4534],[-2.7208,51.4579],[-2.7323,51.4578],[-2.7365,51.4524],[-2.7437,51.4532],[-2.7696,51.4468],[-2.7695,51.4432],[-2.7622,51.4405],[-2.7636,51.4369],[-2.7737,51.4387],[-2.8024,51.4312],[-2.8122,51.415],[-2.8106,51.4087],[-2.8177,51.4005],[-2.8351,51.4067],[-2.8508,51.403],[-2.8539,51.4129],[-2.8497,51.4183],[-2.8512,51.4237],[-2.8627,51.4236],[-2.8598,51.4201],[-2.8611,51.4146],[-2.8712,51.4146],[-2.8811,51.4064],[-2.8976,51.4173],[-2.8909,51.433],[-2.8078,51.4847],[-2.768,51.4991],[-2.7373,51.4969],[-2.7295,51.5065],[-2.703,51.52],[-2.6787,51.5463],[-2.6702,51.5437]],[[-2.5857,51.482],[-2.5857,51.482]],[[-2.6057,51.4666],[-2.6057,51.4666]]]]},"properties":{"gsp":"SEAB1","group":"_L","centroid_lon":-2.53846,"centroid_lat":51.28156}}]}