{"type":"FeatureCollection","features":[{"type":"Feature","geometry":{"type":"Point","coordinates":[-3.2095,51.46989]},"properties":{"name":"Cardiff West Grid Substation","voltage":"132000;33000","substation":"transmission","operator":"National Grid Electricity Distribution Plc","voltage_label":"132kV"}},{"type":"Feature","geometry":{"type":"Point","coordinates":[-4.05434,51.06757]},"properties":{"name":"Barnstaple Substation","voltage":"132000;33000","substation":"transmission","operator":"National Grid Electricity Distribution","voltage_label":"132kV"}},{"type":"Feature","geometry":{"type":"Point","coordinates":[-2.95599,51.34526]},"properties":{"name":"Weston Grid Substation","voltage":"132000;33000","substation":"distribution","operator":"National Grid Electricity Distribution Plc","voltage_label":"132kV"}},{"type":"Feature","geometry":{"type":"Point","coordinates":[-2.98118,51.58448]},"properties":{"name":"","voltage":"132000","substation":"transition","operator":"","voltage_label":"132kV"}},{"type":"Feature","geometry":{"type":"Point","coordinates":[-3.00476,51.56703]},"properties":{"name":"Newport West Primary Substation","voltage":"132000;11000","substation":"transmission","operator":"National Grid Electricity Distribution Plc","voltage_label":"132kV"}},{"type":"Feature","geometry":{"type":"Point","coordinates":[-2.96873,51.56625]},"properties":{"name":"Newport South Primary Substation","voltage":"132000;33000;11000","substation":"distribution","operator":"National Grid Electricity Distribution (South West) plc","voltage_label":"132kV"}},{"type":"Feature","geometry":{"type":"Point","coordinates":[-2.71186,51.58589]},"properties":{"name":"Sudbrook Primary Substation","voltage":"132000;33000;11000","substation":"transmission","operator":"","voltage_label":"132kV"}},{"type":"Feature","geometry":{"type":"Point","coordinates":[-3.01669,51.62903]},"properties":{"name":"Llantarnam Grid Substation","voltage":"132000;66000;11000","substation":"","operator":"National Grid Electricity Distribution Plc","voltage_label":"132kV"}},{"type":"Feature","geometry":{"type":"Point","coordinates":[-2.98942,51.56869]},"properties":{"name":"Simms Metal Primary Substation","voltage":"132000","substation":"","operator":"National Grid Electricity Distribution Plc","voltage_label":"132kV"}},{"type":"Feature","geometry":{"type":"Point","coordinates":[-3.09923,51.51166]},"properties":{"name":"Trowbridge Primary Substation","voltage":"132000;11000","substation":"","operator":"National Grid Electricity Distribution Plc","voltage_label":"132kV"}},{"type":"Feature","geometry":{"type":"Point","coordinates":[-2.9657,51.11812]},"properties":{"name":"Bridgwater Substation (BSP)","voltage":"132000;33000","substation":"transmission","operator":"National Grid Electricity Distribution Plc","voltage_label":"132kV"}},{"type":"Feature","geometry":{"type":"Point","coordinates":[-2.96915,51.11731]},"properties":{"name":"Bridgwater Substation","voltage":"400000;275000;132000","substation":"transmission","operator":"National Grid Electricity Distribution Plc","voltage_label":"132kV"}},{"type":"Feature","geometry":{"type":"Point","coordinates":[-2.55988,51.54744]},"properties":{"name":"Bradley Stoke Substation","voltage":"132000;33000","substation":"transmission","operator":"National Grid Electricity Distribution Plc","voltage_label":"132kV"}},{"type":"Feature","geometry":{"type":"Point","coordinates":[-2.56584,51.50061]},"properties":{"name":"","voltage":"132000","substation":"transition","operator":"National Grid Electricity Distribution","voltage_label":"132kV"}},{"type":"Feature","geometry":{"type":"Point","coordinates":[-2.61974,52.05395]},"properties":{"name":"Hereford","voltage":"132000;66000;11000","substation":"transmission","operator":"","voltage_label":"132kV"}},{"type":"Feature","geometry":{"type":"Point","coordinates":[-3.15546,51.46566]},"properties":{"name":"Cardiff South Primary Substation","voltage":"132000;11000","substation":"","operator":"National Grid Electricity Distribution Plc","voltage_label":"132kV"}},{"type":"Feature","geometry":{"type":"Point","coordinates":[-4.1323,51.67517]},"properties":{"name":"Trostre Grid Substation","voltage":"132000;33000","substation":"","operator":"National Grid Electricity Distribution Plc","voltage_label":"132kV"}},{"type":"Feature","geometry":{"type":"Point","coordinates":[-4.01327,51.64621]},"properties":{"name":"Gowerton East Grid Substation","voltage":"132000;33000","substation":"","operator":"National Grid Electricity Distribution Plc","voltage_label":"132kV"}},{"type":"Feature","geometry":{"type":"Point","coordinates":[-3.91426,51.66724]},"properties":{"name":"Morriston Substation","voltage":"132000;11000","substation":"","operator":"National Grid Electricity Distribution Plc","voltage_label":"132kV"}},{"type":"Feature","geometry":{"type":"Point","coordinates":[-3.75435,51.76281]},"properties":{"name":"Ystradgynlais Grid Substation","voltage":"132000;33000","substation":"distribution","operator":"National Grid Electricity Distribution Plc","voltage_label":"132kV"}},{"type":"Feature","geometry":{"type":"Point","coordinates":[-3.22616,51.80843]},"properties":{"name":"Rassau Supergrid Substation","voltage":"400000;132000","substation":"transmission","operator":"National Grid;Western Power Distribution","voltage_label":"132kV"}},{"type":"Feature","geometry":{"type":"Point","coordinates":[-3.23736,51.79794]},"properties":{"name":"Rassau West Primary Substation","voltage":"132000;11000","substation":"distribution","operator":"National Grid Electricity Distribution Plc","voltage_label":"132kV"}},{"type":"Feature","geometry":{"type":"Point","coordinates":[-3.15782,51.6745]},"properties":{"name":"Crumlin Primary Substation","voltage":"132000;33000;11000;400","substation":"transmission","operator":"","voltage_label":"132kV"}},{"type":"Feature","geometry":{"type":"Point","coordinates":[-3.02526,51.65348]},"properties":{"name":"Cwmbran Primary Substation","voltage":"132000;11000","substation":"","operator":"National Grid Electricity Distribution Plc","voltage_label":"132kV"}},{"type":"Feature","geometry":{"type":"Point","coordinates":[-3.21783,51.66941]},"properties":{"name":"Pengam Primary Substation","voltage":"132000;11000","substation":"","operator":"National Grid Electricity Distribution Plc","voltage_label":"132kV"}},{"type":"Feature","geometry":{"type":"Point","coordinates":[-3.37163,51.66756]},"properties":{"name":"Mountain Ash Grid Substation","voltage":"132000;33000","substation":"distribution","operator":"National Grid Electricity Distribution Plc","voltage_label":"132kV"}},{"type":"Feature","geometry":{"type":"Point","coordinates":[-4.13694,51.00588]},"properties":{"name":"Alverdiscott Substation","voltage":"400000;132000","substation":"transmission","operator":"National Grid Electricity Transmission","voltage_label":"132kV"}},{"type":"Feature","geometry":{"type":"Point","coordinates":[-3.27919,51.42242]},"properties":{"name":"Brynhill Barry Grid Substation","voltage":"132000;33000;11000","substation":"transmission","operator":"National Grid Electricity Distribution Plc","voltage_label":"132kV"}},{"type":"Feature","geometry":{"type":"Point","coordinates":[-3.57851,51.51817]},"properties":{"name":"Bridgend Grid Substation","voltage":"132000;33000","substation":"transmission","operator":"National Grid Electricity Distribution Plc","voltage_label":"132kV"}},{"type":"Feature","geometry":{"type":"Point","coordinates":[-4.36207,52.00581]},"properties":{"name":"Rhos Primary Substation","voltage":"132000;33000;11000","substation":"distribution","operator":"National Grid Electricity Distribution Plc","voltage_label":"132kV"}},{"type":"Feature","geometry":{"type":"Point","coordinates":[-4.357,51.84781]},"properties":{"name":"Carmarthen Grid Substation","voltage":"132000;33000","substation":"distribution","operator":"National Grid Electricity Distribution Plc","voltage_label":"132kV"}},{"type":"Feature","geometry":{"type":"Point","coordinates":[-2.78909,51.35653]},"properties":{"name":"Churchill Substation","voltage":"132000;33000;11000","substation":"distribution","operator":"National Grid Electricity Distribution Plc","voltage_label":"132kV"}},{"type":"Feature","geometry":{"type":"Point","coordinates":[-4.17165,51.06822]},"properties":{"name":"East Yelland Substation","voltage":"132000;33000","substation":"transmission","operator":"National Grid Electricity Distribution","voltage_label":"132kV"}},{"type":"Feature","geometry":{"type":"Point","coordinates":[-3.15427,51.01707]},"properties":{"name":"Taunton Substation","voltage":"400000;132000","substation":"transmission","operator":"National Grid","voltage_label":"132kV"}},{"type":"Feature","geometry":{"type":"Point","coordinates":[-3.48898,51.52145]},"properties":{"name":"Pencoed Primary Substation","voltage":"132000;11000","substation":"transmission","operator":"National Grid Electricity Distribution Plc","voltage_label":"132kV"}},{"type":"Feature","geometry":{"type":"Point","coordinates":[-3.6878,51.53611]},"properties":{"name":"Pyle Supergrid Substation","voltage":"275000;132000;66000","substation":"transmission","operator":"National Grid Electricity Transmission","voltage_label":"132kV"}},{"type":"Feature","geometry":{"type":"Point","coordinates":[-2.75292,51.13117]},"properties":{"name":"Street Substation","voltage":"132000;33000","substation":"transmission","operator":"","voltage_label":"132kV"}},{"type":"Feature","geometry":{"type":"Point","coordinates":[-3.98141,51.62755]},"properties":{"name":"Swansea West Grid Substation","voltage":"132000;33000","substation":"","operator":"National Grid Electricity Distribution Plc","voltage_label":"132kV"}},{"type":"Feature","geometry":{"type":"Point","coordinates":[-2.74496,51.48895]},"properties":{"name":"Portishead Substation","voltage":"132000","substation":"transmission","operator":"","voltage_label":"132kV"}},{"type":"Feature","geometry":{"type":"Point","coordinates":[-2.50857,51.29076]},"properties":{"name":"Radstock Substation","voltage":"132000;33000","substation":"","operator":"National Grid Electricity Distribution Plc","voltage_label":"132kV"}},{"type":"Feature","geometry":{"type":"Point","coordinates":[-2.98433,51.58708]},"properties":{"name":"Newport East Primary Substation","voltage":"132000;11000","substation":"","operator":"National Grid Electricity Distribution Plc","voltage_label":"132kV"}},{"type":"Feature","geometry":{"type":"Point","coordinates":[-3.33991,51.15859]},"properties":{"name":"Bowhays Cross Substation","voltage":"132000;33000;11000","substation":"distribution","operator":"National Grid Electricity Distribution","voltage_label":"132kV"}},{"type":"Feature","geometry":{"type":"Point","coordinates":[-3.01387,51.83885]},"properties":{"name":"Abergavenny Grid Substation","voltage":"132000;66000;11000","substation":"","operator":"National Grid Electricity Distribution Plc","voltage_label":"132kV"}},{"type":"Feature","geometry":{"type":"Point","coordinates":[-4.17368,51.67732]},"properties":{"name":"Llanelli Primary Substation","voltage":"132000;33000;11000","substation":"distribution","operator":"National Grid Electricity Distribution Plc","voltage_label":"132kV"}},{"type":"Feature","geometry":{"type":"Point","coordinates":[-3.39935,51.52872]},"properties":{"name":"Pontyclun Primary Substation","voltage":"132000;11000","substation":"distribution","operator":"National Grid Electricity Distribution Plc","voltage_label":"132kV"}},{"type":"Feature","geometry":{"type":"Point","coordinates":[-3.53756,51.74103]},"properties":{"name":"Hirwaun Grid Substation","voltage":"132000;33000;11000","substation":"transmission","operator":"National Grid Electricity Distribution Plc","voltage_label":"132kV"}},{"type":"Feature","geometry":{"type":"Point","coordinates":[-4.93373,51.80657]},"properties":{"name":"Haverfordwest Grid Substation","voltage":"132000;33000","substation":"distribution","operator":"National Grid Electricity Distribution Plc","voltage_label":"132kV"}},{"type":"Feature","geometry":{"type":"Point","coordinates":[-3.14542,51.49511]},"properties":{"name":"Cardiff East Grid Substation","voltage":"275000;132000;11000","substation":"transmission","operator":"National Grid Electricity Distribution Plc","voltage_label":"132kV"}},{"type":"Feature","geometry":{"type":"Point","coordinates":[-3.34665,51.77011]},"properties":{"name":"Dowlais Grid Substation","voltage":"132000;33000","substation":"distribution","operator":"National Grid Electricity Distribution Plc","voltage_label":"132kV"}},{"type":"Feature","geometry":{"type":"Point","coordinates":[-3.36087,51.7572]},"properties":{"name":"Merthyr East Primary Substation","voltage":"132000;11000","substation":"","operator":"National Grid Electricity Distribution Plc","voltage_label":"132kV"}},{"type":"Feature","geometry":{"type":"Point","coordinates":[-4.03031,51.77245]},"properties":{"name":"Ammanford Grid Substation","voltage":"132000;33000","substation":"","operator":"National Grid Electricity Distribution Plc","voltage_label":"132kV"}},{"type":"Feature","geometry":{"type":"Point","coordinates":[-4.90792,51.68396]},"properties":{"name":"Golden Hill Grid Substation","voltage":"132000;33000;11000","substation":"distribution","operator":"National Grid Electricity Distribution Plc","voltage_label":"132kV"}},{"type":"Feature","geometry":{"type":"Point","coordinates":[-3.7566,51.56717]},"properties":{"name":"Margam Grid Substation","voltage":"132000;66000","substation":"","operator":"National Grid Electricity Distribution Plc","voltage_label":"132kV"}},{"type":"Feature","geometry":{"type":"Point","coordinates":[-3.82208,51.62497]},"properties":{"name":"Briton Ferry Grid Substation","voltage":"132000;33000","substation":"transmission","operator":"National Grid Electricity Distribution Plc","voltage_label":"132kV"}},{"type":"Feature","geometry":{"type":"Point","coordinates":[-2.67023,51.53676]},"properties":{"name":"Seabank Substation","voltage":"400000;132000;33000","substation":"transmission","operator":"National Grid Electricity Transmission","voltage_label":"132kV"}},{"type":"Feature","geometry":{"type":"Point","coordinates":[-4.97282,51.7342]},"properties":{"name":"Milford Haven Grid Substation","voltage":"132000;33000","substation":"transmission","operator":"National Grid Electricity Distribution Plc","voltage_label":"132kV"}},{"type":"Feature","geometry":{"type":"Point","coordinates":[-2.97166,51.54941]},"properties":{"name":"","voltage":"132000","substation":"transmission","operator":"","voltage_label":"132kV"}},{"type":"Feature","geometry":{"type":"Point","coordinates":[-3.38931,51.39583]},"properties":{"name":"East Aberthaw Primary Substation","voltage":"132000;33000;11000","substation":"","operator":"National Grid Electricity Distribution Plc","voltage_label":"132kV"}},{"type":"Feature","geometry":{"type":"Point","coordinates":[-3.00209,51.71391]},"properties":{"name":"Pontypool North Primary Substation","voltage":"132000;66000;11000","substation":"distribution","operator":"National Grid Electricity Distribution Plc","voltage_label":"132kV"}},{"type":"Feature","geometry":{"type":"Point","coordinates":[-3.54827,51.74673]},"properties":{"name":"Rhigos Supergrid Substation","voltage":"400000;132000","substation":"transmission","operator":"National Grid PLC","voltage_label":"132kV"}},{"type":"Feature","geometry":{"type":"Point","coordinates":[-3.22797,51.41237]},"properties":{"name":"Sully Grid Substation","voltage":"132000;11000","substation":"","operator":"National Grid Electricity Distribution Plc","voltage_label":"132kV"}},{"type":"Feature","geometry":{"type":"Point","coordinates":[-2.58333,51.45916]},"properties":{"name":"St Paul's Substation","voltage":"132000;11000","substation":"distribution","operator":"National Grid Electricity Distribution","voltage_label":"132kV"}},{"type":"Feature","geometry":{"type":"Point","coordinates":[-3.38949,51.54977]},"properties":{"name":"Talbot Green Primary Substation","voltage":"132000;11000","substation":"distribution","operator":"National Grid Electricity Distribution Plc","voltage_label":"132kV"}},{"type":"Feature","geometry":{"type":"Point","coordinates":[-4.20178,51.95777]},"properties":{"name":"","voltage":"132000","substation":"","operator":"","voltage_label":"132kV"}},{"type":"Feature","geometry":{"type":"Point","coordinates":[-2.68055,51.50219]},"properties":{"name":"Avonmouth Substation","voltage":"132000;33000","substation":"distribution","operator":"National Grid Electricity Distribution","voltage_label":"132kV"}},{"type":"Feature","geometry":{"type":"Point","coordinates":[-3.19395,51.5247]},"properties":{"name":"Cardiff North Grid Substation","voltage":"132000;33000","substation":"","operator":"National Grid Electricity Distribution Plc","voltage_label":"132kV"}}]}