{"type":"FeatureCollection","features":[{"type":"Feature","geometry":{"type":"Point","coordinates":[-4.14246,51.00354]},"properties":{"name":"Cleave Farm 33kV Solar Pk","voltage":"33000","substation":"","operator":"National Grid Electricity Distribution Plc","voltage_label":"33kV"}},{"type":"Feature","geometry":{"type":"Point","coordinates":[-2.98916,51.11263]},"properties":{"name":"Huntworth Generator","voltage":"33000","substation":"","operator":"National Grid Electricity Distribution Plc","voltage_label":"33kV"}},{"type":"Feature","geometry":{"type":"Point","coordinates":[-2.81683,51.115]},"properties":{"name":"Redlands Fm 33kV Solar Pk","voltage":"33000","substation":"","operator":"National Grid Electricity Distribution Plc","voltage_label":"33kV"}},{"type":"Feature","geometry":{"type":"Point","coordinates":[-2.81078,51.29761]},"properties":{"name":"Frys Hill Radio Station","voltage":"33000","substation":"","operator":"National Grid Electricity Distribution Plc","voltage_label":"33kV"}},{"type":"Feature","geometry":{"type":"Point","coordinates":[-3.32704,51.41841]},"properties":{"name":"Sutton Farm 33kV Solar Pk","voltage":"33000","substation":"","operator":"National Grid Electricity Distribution Plc","voltage_label":"33kV"}},{"type":"Feature","geometry":{"type":"Point","coordinates":[-2.85562,51.35136]},"properties":{"name":"Rookery Farm 33kV Solar Pk","voltage":"33000","substation":"","operator":"National Grid Electricity Distribution Plc","voltage_label":"33kV"}},{"type":"Feature","geometry":{"type":"Point","coordinates":[-2.96602,51.18586]},"properties":{"name":"Withy Drove 33kv Solar Pk","voltage":"33000","substation":"","operator":"National Grid Electricity Distribution Plc","voltage_label":"33kV"}},{"type":"Feature","geometry":{"type":"Point","coordinates":[-2.98206,51.28288]},"properties":{"name":"Wick Farm West 33kv Solar","voltage":"33000","substation":"","operator":"National Grid Electricity Distribution Plc","voltage_label":"33kV"}},{"type":"Feature","geometry":{"type":"Point","coordinates":[-2.92671,51.18091]},"properties":{"name":"Woolavington 33kV Solar Pk","voltage":"33000","substation":"","operator":"National Grid Electricity Distribution Plc","voltage_label":"33kV"}},{"type":"Feature","geometry":{"type":"Point","coordinates":[-3.22977,51.41114]},"properties":{"name":"Sully Stor 33Kv Sw Stn Substation","voltage":"33000","substation":"minor_distribution","operator":"National Grid Electricity Distribution Plc","voltage_label":"33kV"}},{"type":"Feature","geometry":{"type":"Point","coordinates":[-3.30982,51.41681]},"properties":{"name":"Jesus College PV Gen","voltage":"33000","substation":"","operator":"National Grid Electricity Distribution Plc","voltage_label":"33kV"}},{"type":"Feature","geometry":{"type":"Point","coordinates":[-2.94376,51.22569]},"properties":{"name":"Watchfield Lawn 33kV Solar","voltage":"33000","substation":"","operator":"National Grid Electricity Distribution Plc","voltage_label":"33kV"}},{"type":"Feature","geometry":{"type":"Point","coordinates":[-2.98146,51.17096]},"properties":{"name":"Puriton Landfill 33kV Solar","voltage":"33000","substation":"","operator":"National Grid Electricity Distribution Plc","voltage_label":"33kV"}},{"type":"Feature","geometry":{"type":"Point","coordinates":[-4.11651,51.11124]},"properties":{"name":"Luscott Barton 33kv Solar","voltage":"33000","substation":"","operator":"National Grid Electricity Distribution Plc","voltage_label":"33kV"}},{"type":"Feature","geometry":{"type":"Point","coordinates":[-2.82341,51.34865]},"properties":{"name":"Carditch Drove 33kV Solar","voltage":"33000","substation":"","operator":"National Grid Electricity Distribution Plc","voltage_label":"33kV"}},{"type":"Feature","geometry":{"type":"Point","coordinates":[-3.35987,51.17117]},"properties":{"name":"Higher Bye Farm 33kV Solar","voltage":"33000","substation":"","operator":"National Grid Electricity Distribution Plc","voltage_label":"33kV"}},{"type":"Feature","geometry":{"type":"Point","coordinates":[-4.13602,51.77505]},"properties":{"name":"Pont Andrew PV Generation","voltage":"33000","substation":"","operator":"National Grid Electricity Distribution Plc","voltage_label":"33kV"}},{"type":"Feature","geometry":{"type":"Point","coordinates":[-3.23266,51.80045]},"properties":{"name":"Ogmore Power Rassau","voltage":"33000","substation":"","operator":"National Grid Electricity Distribution Plc","voltage_label":"33kV"}},{"type":"Feature","geometry":{"type":"Point","coordinates":[-3.85471,51.64948]},"properties":{"name":"Llandarcy STOR Generation","voltage":"33000","substation":"","operator":"National Grid Electricity Distribution Plc","voltage_label":"33kV"}},{"type":"Feature","geometry":{"type":"Point","coordinates":[-3.14977,51.47156]},"properties":{"name":"Trident Park Generation","voltage":"33000","substation":"","operator":"National Grid Electricity Distribution Plc","voltage_label":"33kV"}},{"type":"Feature","geometry":{"type":"Point","coordinates":[-3.31599,51.74651]},"properties":{"name":"Cwmbargoed Coal Washery","voltage":"33000","substation":"","operator":"National Grid Electricity Distribution Plc","voltage_label":"33kV"}},{"type":"Feature","geometry":{"type":"Point","coordinates":[-3.53234,51.74372]},"properties":{"name":"Rhigos Road Gas Gen","voltage":"33000","substation":"","operator":"National Grid Electricity Distribution Plc","voltage_label":"33kV"}},{"type":"Feature","geometry":{"type":"Point","coordinates":[-3.6127,51.52461]},"properties":{"name":"Court Coleman Pv Gen Substation","voltage":"33000","substation":"","operator":"National Grid Electricity Distribution Plc","voltage_label":"33kV"}},{"type":"Feature","geometry":{"type":"Point","coordinates":[-4.95065,51.64359]},"properties":{"name":"Yerbeston Chapel Hill","voltage":"33000","substation":"","operator":"National Grid Electricity Distribution Plc","voltage_label":"33kV"}},{"type":"Feature","geometry":{"type":"Point","coordinates":[-4.01525,51.64856]},"properties":{"name":"Gowerton STOR Substation","voltage":"33000","substation":"","operator":"National Grid Electricity Distribution Plc","voltage_label":"33kV"}},{"type":"Feature","geometry":{"type":"Point","coordinates":[-3.95497,51.7]},"properties":{"name":"Abergelli Pv Generation","voltage":"33000","substation":"","operator":"National Grid Electricity Distribution Plc","voltage_label":"33kV"}},{"type":"Feature","geometry":{"type":"Point","coordinates":[-4.92074,51.8183]},"properties":{"name":"Fenton Farm PV Generation","voltage":"33000","substation":"","operator":"National Grid Electricity Distribution Plc","voltage_label":"33kV"}},{"type":"Feature","geometry":{"type":"Point","coordinates":[-3.93541,51.6937]},"properties":{"name":"Cefn Betingau Solar PV Gen","voltage":"33000","substation":"","operator":"National Grid Electricity Distribution Plc","voltage_label":"33kV"}},{"type":"Feature","geometry":{"type":"Point","coordinates":[-3.83155,51.61244]},"properties":{"name":"Baglan Bay PV Generation","voltage":"33000","substation":"","operator":"National Grid Electricity Distribution Plc","voltage_label":"33kV"}},{"type":"Feature","geometry":{"type":"Point","coordinates":[-4.90093,51.69972]},"properties":{"name":"West Farm Pv Generation","voltage":"33000","substation":"","operator":"National Grid Electricity Distribution Plc","voltage_label":"33kV"}},{"type":"Feature","geometry":{"type":"Point","coordinates":[-3.41591,51.6975]},"properties":{"name":"Aberdare Power Station","voltage":"33000","substation":"","operator":"National Grid Electricity Distribution Plc","voltage_label":"33kV"}},{"type":"Feature","geometry":{"type":"Point","coordinates":[-3.79731,51.59285]},"properties":{"name":"Afan Way STOR Generation","voltage":"33000","substation":"","operator":"National Grid Electricity Distribution Plc","voltage_label":"33kV"}},{"type":"Feature","geometry":{"type":"Point","coordinates":[-3.45482,51.62838]},"properties":{"name":"","voltage":"33000","substation":"","operator":"","voltage_label":"33kV"}},{"type":"Feature","geometry":{"type":"Point","coordinates":[-3.78885,52.09784]},"properties":{"name":"Ystradffin Hydro Generation Switching Station","voltage":"33000","substation":"","operator":"","voltage_label":"33kV"}},{"type":"Feature","geometry":{"type":"Point","coordinates":[-3.76655,52.11961]},"properties":{"name":"Llyn Brianne Substation","voltage":"33000","substation":"","operator":"National Grid Electricity Distribution Plc","voltage_label":"33kV"}},{"type":"Feature","geometry":{"type":"Point","coordinates":[-3.22924,51.41062]},"properties":{"name":"Peakgen Barry Stor 33Kv Sw Stn Substation","voltage":"33000","substation":"minor_distribution","operator":"National Grid Electricity Distribution Plc","voltage_label":"33kV"}},{"type":"Feature","geometry":{"type":"Point","coordinates":[-3.09166,51.02558]},"properties":{"name":"Priorswood Substation","voltage":"33000;11000","substation":"distribution","operator":"National Grid Electricity Distribution","voltage_label":"33kV"}},{"type":"Feature","geometry":{"type":"Point","coordinates":[-2.95621,51.34584]},"properties":{"name":"Weston Locking Road Primary Substation","voltage":"33000;11000","substation":"distribution","operator":"National Grid Electricity Distribution Plc","voltage_label":"33kV"}},{"type":"Feature","geometry":{"type":"Point","coordinates":[-4.0155,51.64969]},"properties":{"name":"Waunarlwydd Switching Station","voltage":"33000;11000","substation":"distribution","operator":"","voltage_label":"33kV"}},{"type":"Feature","geometry":{"type":"Point","coordinates":[-3.36838,51.72927]},"properties":{"name":"Pentrebach Primary Substation","voltage":"33000;11000","substation":"distribution","operator":"National Grid Electricity Distribution Plc","voltage_label":"33kV"}},{"type":"Feature","geometry":{"type":"Point","coordinates":[-3.16965,51.48031]},"properties":{"name":"Sandon Street Primary Substation","voltage":"33000;11000","substation":"","operator":"National Grid Electricity Distribution Plc","voltage_label":"33kV"}},{"type":"Feature","geometry":{"type":"Point","coordinates":[-3.13025,51.48193]},"properties":{"name":"Tremorfa Substation","voltage":"275000;33000","substation":"transmission","operator":"National Grid Electricity Transmission","voltage_label":"33kV"}},{"type":"Feature","geometry":{"type":"Point","coordinates":[-2.52091,51.59412]},"properties":{"name":"Alveston Substation","voltage":"33000","substation":"distribution","operator":"","voltage_label":"33kV"}},{"type":"Feature","geometry":{"type":"Point","coordinates":[-3.95309,52.02959]},"properties":{"name":"Pont-Ar-Annell Primary Substation","voltage":"33000;11000","substation":"distribution","operator":"National Grid Electricity Distribution Plc","voltage_label":"33kV"}},{"type":"Feature","geometry":{"type":"Point","coordinates":[-3.21149,51.47829]},"properties":{"name":"Sanatorium Primary Substation","voltage":"33000;11000;400","substation":"minor_distribution","operator":"National Grid Electricity Distribution Plc","voltage_label":"33kV"}},{"type":"Feature","geometry":{"type":"Point","coordinates":[-5.09659,51.88735]},"properties":{"name":"Brawdy Primary Substation","voltage":"33000;11000","substation":"minor_distribution","operator":"National Grid Electricity Distribution Plc","voltage_label":"33kV"}},{"type":"Feature","geometry":{"type":"Point","coordinates":[-4.04766,51.58696]},"properties":{"name":"Bishopston Primary Substation","voltage":"33000;11000","substation":"distribution","operator":"National Grid Electricity Distribution Plc","voltage_label":"33kV"}},{"type":"Feature","geometry":{"type":"Point","coordinates":[-4.17634,51.60678]},"properties":{"name":"Llanrhidian Primary Substation","voltage":"33000;11000","substation":"distribution","operator":"National Grid Electricity Distribution Plc","voltage_label":"33kV"}},{"type":"Feature","geometry":{"type":"Point","coordinates":[-4.01916,51.66176]},"properties":{"name":"Garngoch Substation","voltage":"33000;11000","substation":"","operator":"National Grid Electricity Distribution Plc","voltage_label":"33kV"}},{"type":"Feature","geometry":{"type":"Point","coordinates":[-4.19122,51.86467]},"properties":{"name":"Nantgaredig Primary Substation","voltage":"33000;11000","substation":"minor_distribution","operator":"National Grid Electricity Distribution Plc","voltage_label":"33kV"}},{"type":"Feature","geometry":{"type":"Point","coordinates":[-4.20008,51.86091]},"properties":{"name":"WGWB River Towy Intake Substation","voltage":"33000;11000","substation":"distribution","operator":"National Grid Electricity Distribution Plc","voltage_label":"33kV"}},{"type":"Feature","geometry":{"type":"Point","coordinates":[-3.92017,51.62102]},"properties":{"name":"Swansea Waterfront Primary Substation","voltage":"33000;11000","substation":"distribution","operator":"National Grid Electricity Distribution Plc","voltage_label":"33kV"}},{"type":"Feature","geometry":{"type":"Point","coordinates":[-3.12188,51.00137]},"properties":{"name":"","voltage":"33000","substation":"","operator":"","voltage_label":"33kV"}},{"type":"Feature","geometry":{"type":"Point","coordinates":[-2.92178,51.26085]},"properties":{"name":"Brent Knoll Switching Site","voltage":"33000","substation":"","operator":"National Grid Electricity Distribution Plc","voltage_label":"33kV"}},{"type":"Feature","geometry":{"type":"Point","coordinates":[-2.93233,51.21902]},"properties":{"name":"Watchfield Substation","voltage":"33000","substation":"distribution","operator":"National Grid Electricity Distribution Plc","voltage_label":"33kV"}},{"type":"Feature","geometry":{"type":"Point","coordinates":[-2.9669,51.18143]},"properties":{"name":"Blackditch Substation","voltage":"33000","substation":"","operator":"National Grid Electricity Distribution Plc","voltage_label":"33kV"}},{"type":"Feature","geometry":{"type":"Point","coordinates":[-2.98186,51.14161]},"properties":{"name":"Bath Road Substation","voltage":"33000;11000","substation":"distribution","operator":"National Grid Electricity Distribution Plc","voltage_label":"33kV"}},{"type":"Feature","geometry":{"type":"Point","coordinates":[-3.90174,51.94276]},"properties":{"name":"Llangadog Primary Substation","voltage":"33000;11000","substation":"distribution","operator":"National Grid Electricity Distribution Plc","voltage_label":"33kV"}},{"type":"Feature","geometry":{"type":"Point","coordinates":[-2.9168,51.35089]},"properties":{"name":"Lypstone Farm Primary Substation","voltage":"33000;11000","substation":"distribution","operator":"National Grid Electricity Distribution Plc","voltage_label":"33kV"}},{"type":"Feature","geometry":{"type":"Point","coordinates":[-2.5565,51.50128]},"properties":{"name":"Hewlett Packard Substation","voltage":"33000;11000","substation":"","operator":"Westen Power Disribution (South West) plc","voltage_label":"33kV"}},{"type":"Feature","geometry":{"type":"Point","coordinates":[-2.82756,51.03919]},"properties":{"name":"North Street Langport Substation","voltage":"33000;11000","substation":"distribution","operator":"National Grid Electricity Distribution","voltage_label":"33kV"}},{"type":"Feature","geometry":{"type":"Point","coordinates":[-2.50026,51.33011]},"properties":{"name":"High Littleton Substation","voltage":"33000;11000","substation":"distribution","operator":"","voltage_label":"33kV"}},{"type":"Feature","geometry":{"type":"Point","coordinates":[-2.72098,51.12021]},"properties":{"name":"Millfield Substation","voltage":"33000;11000","substation":"distribution","operator":"National Grid Electricity Distribution","voltage_label":"33kV"}},{"type":"Feature","geometry":{"type":"Point","coordinates":[-2.67472,51.13916]},"properties":{"name":"Edgarley Substation","voltage":"33000;11000","substation":"distribution","operator":"","voltage_label":"33kV"}},{"type":"Feature","geometry":{"type":"Point","coordinates":[-2.80718,51.22943]},"properties":{"name":"","voltage":"33000","substation":"distribution","operator":"","voltage_label":"33kV"}},{"type":"Feature","geometry":{"type":"Point","coordinates":[-3.12062,51.02519]},"properties":{"name":"Staplegrove Substation","voltage":"33000;11000","substation":"","operator":"National Grid Electricity Distribution Plc","voltage_label":"33kV"}},{"type":"Feature","geometry":{"type":"Point","coordinates":[-2.56934,51.55003]},"properties":{"name":"Almondsbury Substation","voltage":"33000;11000","substation":"distribution","operator":"National Grid Electricity Distribution Plc","voltage_label":"33kV"}},{"type":"Feature","geometry":{"type":"Point","coordinates":[-3.75642,51.76435]},"properties":{"name":"Travellers Rest Primary Substation","voltage":"33000;11000","substation":"distribution","operator":"National Grid Electricity Distribution Plc","voltage_label":"33kV"}},{"type":"Feature","geometry":{"type":"Point","coordinates":[-3.69115,51.7945]},"properties":{"name":"Abercrave Primary Substation","voltage":"33000;11000","substation":"distribution","operator":"National Grid Electricity Distribution Plc","voltage_label":"33kV"}},{"type":"Feature","geometry":{"type":"Point","coordinates":[-2.54552,51.19233]},"properties":{"name":"Shepton Mallet Substation","voltage":"33000","substation":"","operator":"National Grid Electricity Distribution","voltage_label":"33kV"}},{"type":"Feature","geometry":{"type":"Point","coordinates":[-4.32191,51.8631]},"properties":{"name":"Trevaughan Substation","voltage":"33000;11000","substation":"distribution","operator":"National Grid Electricity Distribution Plc","voltage_label":"33kV"}},{"type":"Feature","geometry":{"type":"Point","coordinates":[-2.75542,51.42633]},"properties":{"name":"Nailsea Primary Substation","voltage":"33000;11000","substation":"distribution","operator":"National Grid Electricity Distribution","voltage_label":"33kV"}},{"type":"Feature","geometry":{"type":"Point","coordinates":[-3.69236,51.53407]},"properties":{"name":"Pyle Primary Substation","voltage":"33000;11000","substation":"","operator":"National Grid Electricity Distribution Plc","voltage_label":"33kV"}},{"type":"Feature","geometry":{"type":"Point","coordinates":[-3.98841,51.89726]},"properties":{"name":"Llandelio Primary Substation","voltage":"33000;11000","substation":"distribution","operator":"National Grid Electricity Distribution Plc","voltage_label":"33kV"}},{"type":"Feature","geometry":{"type":"Point","coordinates":[-4.97187,51.97861]},"properties":{"name":"Fishguard Primary Substation","voltage":"33000;11000","substation":"distribution","operator":"National Grid Electricity Distribution Plc","voltage_label":"33kV"}},{"type":"Feature","geometry":{"type":"Point","coordinates":[-3.9939,51.61541]},"properties":{"name":"Sketty Park Primary Substation","voltage":"33000;11000;400","substation":"distribution","operator":"National Grid Electricity Distribution Plc","voltage_label":"33kV"}},{"type":"Feature","geometry":{"type":"Point","coordinates":[-2.8415,51.43221]},"properties":{"name":"Clevedon Primary Substation","voltage":"33000;11000","substation":"distribution","operator":"National Grid Electricity Distribution","voltage_label":"33kV"}},{"type":"Feature","geometry":{"type":"Point","coordinates":[-3.52574,51.66962]},"properties":{"name":"Ynysfeio Primary Substation","voltage":"33000;11000","substation":"minor_distribution","operator":"National Grid Electricity Distribution Plc","voltage_label":"33kV"}},{"type":"Feature","geometry":{"type":"Point","coordinates":[-3.82803,51.63355]},"properties":{"name":"Wern Primary Substation","voltage":"33000;11000;400","substation":"minor_distribution","operator":"National Grid Electricity Distribution Plc","voltage_label":"33kV"}},{"type":"Feature","geometry":{"type":"Point","coordinates":[-2.90826,51.56623]},"properties":{"name":"","voltage":"33000","substation":"transition","operator":"","voltage_label":"33kV"}},{"type":"Feature","geometry":{"type":"Point","coordinates":[-2.90922,51.5662]},"properties":{"name":"","voltage":"33000","substation":"transition","operator":"","voltage_label":"33kV"}},{"type":"Feature","geometry":{"type":"Point","coordinates":[-2.83639,51.31828]},"properties":{"name":"Winscombe Substation","voltage":"33000;11000","substation":"distribution","operator":"National Grid Electricity Distribution Plc","voltage_label":"33kV"}},{"type":"Feature","geometry":{"type":"Point","coordinates":[-2.59496,51.52865]},"properties":{"name":"Cribbs Causeway Substation","voltage":"33000;11000","substation":"","operator":"National Grid Electricity Distribution","voltage_label":"33kV"}},{"type":"Feature","geometry":{"type":"Point","coordinates":[-2.65438,51.5291]},"properties":{"name":"British Gas Hallen Substation","voltage":"33000;11000","substation":"","operator":"National Grid Electricity Distribution","voltage_label":"33kV"}},{"type":"Feature","geometry":{"type":"Point","coordinates":[-3.19446,51.50627]},"properties":{"name":"Heath Hospital Primary Substation","voltage":"33000;11000","substation":"","operator":"National Grid Electricity Distribution Plc","voltage_label":"33kV"}},{"type":"Feature","geometry":{"type":"Point","coordinates":[-5.25346,51.88198]},"properties":{"name":"St Davids Primary Substation","voltage":"33000;11000","substation":"distribution","operator":"National Grid Electricity Distribution Plc","voltage_label":"33kV"}},{"type":"Feature","geometry":{"type":"Point","coordinates":[-3.25251,51.52722]},"properties":{"name":"Ironbridge Primary Substation","voltage":"33000;11000","substation":"","operator":"National Grid Electricity Distribution Plc","voltage_label":"33kV"}},{"type":"Feature","geometry":{"type":"Point","coordinates":[-2.51289,51.52434]},"properties":{"name":"Winterbourne Substation","voltage":"33000;11000","substation":"distribution","operator":"National Grid Electricity Distribution","voltage_label":"33kV"}},{"type":"Feature","geometry":{"type":"Point","coordinates":[-3.92939,51.03663]},"properties":{"name":"","voltage":"33000","substation":"distribution","operator":"","voltage_label":"33kV"}},{"type":"Feature","geometry":{"type":"Point","coordinates":[-3.17008,51.59516]},"properties":{"name":"Trethomas Primary Substation","voltage":"33000;11000","substation":"distribution","operator":"National Grid Electricity Distribution Plc","voltage_label":"33kV"}},{"type":"Feature","geometry":{"type":"Point","coordinates":[-3.0262,51.01561]},"properties":{"name":"Creech St. Michael Substation","voltage":"33000;11000","substation":"","operator":"National Grid Electricity Distribution Plc","voltage_label":"33kV"}},{"type":"Feature","geometry":{"type":"Point","coordinates":[-2.74143,51.05797]},"properties":{"name":"","voltage":"33000","substation":"distribution","operator":"","voltage_label":"33kV"}},{"type":"Feature","geometry":{"type":"Point","coordinates":[-2.50746,51.07766]},"properties":{"name":"","voltage":"33000","substation":"distribution","operator":"","voltage_label":"33kV"}},{"type":"Feature","geometry":{"type":"Point","coordinates":[-2.64972,51.20675]},"properties":{"name":"","voltage":"33000;11000","substation":"distribution","operator":"","voltage_label":"33kV"}},{"type":"Feature","geometry":{"type":"Point","coordinates":[-2.56071,51.02732]},"properties":{"name":"","voltage":"33000","substation":"distribution","operator":"Western Power Distribution","voltage_label":"33kV"}},{"type":"Feature","geometry":{"type":"Point","coordinates":[-2.61253,51.45545]},"properties":{"name":"Clifton Substation","voltage":"33000;11000","substation":"distribution","operator":"National Grid Electricity Distribution","voltage_label":"33kV"}},{"type":"Feature","geometry":{"type":"Point","coordinates":[-2.7667,51.48469]},"properties":{"name":"Gas Lane Substation","voltage":"33000;11000","substation":"","operator":"National Grid Electricity Distribution","voltage_label":"33kV"}},{"type":"Feature","geometry":{"type":"Point","coordinates":[-2.50959,51.31037]},"properties":{"name":"Paulton Substation","voltage":"33000;11000","substation":"distribution","operator":"","voltage_label":"33kV"}},{"type":"Feature","geometry":{"type":"Point","coordinates":[-2.60371,51.47822]},"properties":{"name":"Cairns Road Substation","voltage":"33000;11000","substation":"distribution","operator":"National Grid Electricity Distribution Plc","voltage_label":"33kV"}},{"type":"Feature","geometry":{"type":"Point","coordinates":[-2.83687,51.13404]},"properties":{"name":"Shapwick Substation","voltage":"33000","substation":"distribution","operator":"","voltage_label":"33kV"}},{"type":"Feature","geometry":{"type":"Point","coordinates":[-4.22825,51.68812]},"properties":{"name":"New Lodge Primary Substation","voltage":"33000;11000","substation":"distribution","operator":"National Grid Electricity Distribution Plc","voltage_label":"33kV"}},{"type":"Feature","geometry":{"type":"Point","coordinates":[-4.65198,52.08385]},"properties":{"name":"Cardigan Primary Substation","voltage":"33000;11000","substation":"distribution","operator":"National Grid Electricity Distribution Plc","voltage_label":"33kV"}},{"type":"Feature","geometry":{"type":"Point","coordinates":[-3.23861,51.07978]},"properties":{"name":"Lydeard St Lawrence Substation","voltage":"33000;11000","substation":"distribution","operator":"National Grid Electricity Distribution Plc","voltage_label":"33kV"}},{"type":"Feature","geometry":{"type":"Point","coordinates":[-3.12568,51.14795]},"properties":{"name":"Nether Stowey Substation","voltage":"33000;11000","substation":"distribution","operator":"","voltage_label":"33kV"}},{"type":"Feature","geometry":{"type":"Point","coordinates":[-3.19682,51.16887]},"properties":{"name":"Holford Switching Station","voltage":"33000","substation":"distribution","operator":"","voltage_label":"33kV"}},{"type":"Feature","geometry":{"type":"Point","coordinates":[-2.56541,51.27169]},"properties":{"name":"Chewton Mendip Substation","voltage":"33000;11000","substation":"distribution","operator":"National Grid Electricity Distribution Plc","voltage_label":"33kV"}},{"type":"Feature","geometry":{"type":"Point","coordinates":[-2.50643,51.41388]},"properties":{"name":"Keynsham West Substation","voltage":"33000;11000","substation":"distribution","operator":"National Grid Electricity Distribution Plc","voltage_label":"33kV"}},{"type":"Feature","geometry":{"type":"Point","coordinates":[-2.78295,51.27465]},"properties":{"name":"Cheddar Substation","voltage":"33000;11000","substation":"distribution","operator":"National Grid Electricity Distribution","voltage_label":"33kV"}},{"type":"Feature","geometry":{"type":"Point","coordinates":[-2.81609,51.28546]},"properties":{"name":"Axbridge Substation","voltage":"33000;11000","substation":"distribution","operator":"","voltage_label":"33kV"}},{"type":"Feature","geometry":{"type":"Point","coordinates":[-2.60029,51.46021]},"properties":{"name":"Cotham Substation","voltage":"33000;11000","substation":"","operator":"National Grid Electricity Distribution","voltage_label":"33kV"}},{"type":"Feature","geometry":{"type":"Point","coordinates":[-5.04093,51.71478]},"properties":{"name":"Milford Haven Primary Substation","voltage":"33000;11000","substation":"","operator":"National Grid Electricity Distribution Plc","voltage_label":"33kV"}},{"type":"Feature","geometry":{"type":"Point","coordinates":[-2.71469,51.67787]},"properties":{"name":"St Arvans Substation","voltage":"33000;11000","substation":"distribution","operator":"National Grid Electricity Distribution Plc","voltage_label":"33kV"}},{"type":"Feature","geometry":{"type":"Point","coordinates":[-3.95343,51.69128]},"properties":{"name":"Felindre Pumping Station Substation","voltage":"33000","substation":"","operator":"National Grid Electricity Distribution Plc","voltage_label":"33kV"}},{"type":"Feature","geometry":{"type":"Point","coordinates":[-2.9887,51.11918]},"properties":{"name":"","voltage":"33000","substation":"","operator":"","voltage_label":"33kV"}},{"type":"Feature","geometry":{"type":"Point","coordinates":[-3.16835,51.0327]},"properties":{"name":"Montys Farm 33kV Solar Pk","voltage":"33000","substation":"","operator":"National Grid Electricity Distribution Plc","voltage_label":"33kV"}},{"type":"Feature","geometry":{"type":"Point","coordinates":[-4.65998,52.05018]},"properties":{"name":"Bridell Primary Substation","voltage":"33000;11000","substation":"distribution","operator":"National Grid Electricity Distribution Plc","voltage_label":"33kV"}},{"type":"Feature","geometry":{"type":"Point","coordinates":[-3.1992,51.00765]},"properties":{"name":"New Rendy Farm 33kV Solar","voltage":"33000","substation":"","operator":"National Grid Electricity Distribution","voltage_label":"33kV"}},{"type":"Feature","geometry":{"type":"Point","coordinates":[-3.22174,51.00969]},"properties":{"name":"Grange Farm 33kV Solar Pk","voltage":"33000","substation":"","operator":"National Grid Electricity Distribution Plc","voltage_label":"33kV"}},{"type":"Feature","geometry":{"type":"Point","coordinates":[-2.79625,51.46374]},"properties":{"name":"Weston-In-Gordano Substation","voltage":"33000;11000","substation":"","operator":"National Grid Electricity Distribution","voltage_label":"33kV"}},{"type":"Feature","geometry":{"type":"Point","coordinates":[-4.58942,51.9121]},"properties":{"name":"Dyffryn Brodyn Substation","voltage":"33000","substation":"transmission","operator":"National Grid Electricity Distribution Plc","voltage_label":"33kV"}},{"type":"Feature","geometry":{"type":"Point","coordinates":[-2.57301,51.50939]},"properties":{"name":"Filton DC Substation","voltage":"33000;11000","substation":"","operator":"National Grid Electricity Distribution","voltage_label":"33kV"}},{"type":"Feature","geometry":{"type":"Point","coordinates":[-4.79281,52.01576]},"properties":{"name":"Nevern Primary Substation","voltage":"33000;11000","substation":"minor_distribution","operator":"National Grid Electricity Distribution Plc","voltage_label":"33kV"}},{"type":"Feature","geometry":{"type":"Point","coordinates":[-2.58605,51.20752]},"properties":{"name":"Dinder Substation","voltage":"33000;11000","substation":"","operator":"National Grid Electricity Distribution","voltage_label":"33kV"}},{"type":"Feature","geometry":{"type":"Point","coordinates":[-2.51025,51.14692]},"properties":{"name":"Evercreech Substation","voltage":"33000;11000","substation":"distribution","operator":"National Grid Electricity Distribution Plc","voltage_label":"33kV"}},{"type":"Feature","geometry":{"type":"Point","coordinates":[-3.82815,51.02631]},"properties":{"name":"South Molton Substation","voltage":"33000;11000","substation":"distribution","operator":"National Grid Electricity Distribution","voltage_label":"33kV"}},{"type":"Feature","geometry":{"type":"Point","coordinates":[-3.52894,51.01445]},"properties":{"name":"","voltage":"33000;11000","substation":"","operator":"","voltage_label":"33kV"}},{"type":"Feature","geometry":{"type":"Point","coordinates":[-3.30904,51.03543]},"properties":{"name":"Wiveliscombe Substation","voltage":"33000;11000","substation":"distribution","operator":"National Grid Electricity Distribution Plc","voltage_label":"33kV"}},{"type":"Feature","geometry":{"type":"Point","coordinates":[-3.4489,51.01791]},"properties":{"name":"Quartley Switching Station","voltage":"33000","substation":"","operator":"","voltage_label":"33kV"}},{"type":"Feature","geometry":{"type":"Point","coordinates":[-4.19962,51.01139]},"properties":{"name":"Bideford Main Substation","voltage":"33000","substation":"","operator":"National Grid Electricity Distribution","voltage_label":"33kV"}},{"type":"Feature","geometry":{"type":"Point","coordinates":[-2.98819,51.23813]},"properties":{"name":"Burnham Substation","voltage":"33000;11000","substation":"distribution","operator":"National Grid Electricity Distribution","voltage_label":"33kV"}},{"type":"Feature","geometry":{"type":"Point","coordinates":[-2.63808,51.37216]},"properties":{"name":"Chew Stoke Primary Substation","voltage":"33000;11000","substation":"distribution","operator":"National Grid Electricity Distribution Plc","voltage_label":"33kV"}},{"type":"Feature","geometry":{"type":"Point","coordinates":[-2.80291,51.37548]},"properties":{"name":"Congresbury Substation","voltage":"33000;11000","substation":"distribution","operator":"National Grid Electricity Distribution Plc","voltage_label":"33kV"}},{"type":"Feature","geometry":{"type":"Point","coordinates":[-2.79366,51.33791]},"properties":{"name":"Churchill Gate Primary Substation","voltage":"33000;11000","substation":"distribution","operator":"National Grid Electricity Distribution Plc","voltage_label":"33kV"}},{"type":"Feature","geometry":{"type":"Point","coordinates":[-3.93693,51.12415]},"properties":{"name":"Bratton Fleming Substation","voltage":"33000;11000","substation":"","operator":"National Grid Electricity Distribution","voltage_label":"33kV"}},{"type":"Feature","geometry":{"type":"Point","coordinates":[-3.87238,51.62392]},"properties":{"name":"Jersey Marine Primary Substation","voltage":"33000;11000","substation":"","operator":"National Grid Electricity Distribution Plc","voltage_label":"33kV"}},{"type":"Feature","geometry":{"type":"Point","coordinates":[-2.59207,51.79563]},"properties":{"name":"Bixhead Substation","voltage":"33000","substation":"","operator":"","voltage_label":"33kV"}},{"type":"Feature","geometry":{"type":"Point","coordinates":[-3.17797,51.47708]},"properties":{"name":"Wood St Primary Substation","voltage":"33000;11000","substation":"","operator":"National Grid Electricity Distribution Plc","voltage_label":"33kV"}},{"type":"Feature","geometry":{"type":"Point","coordinates":[-2.5829,51.45857]},"properties":{"name":"Broadweir Primary Substation","voltage":"33000;11000","substation":"distribution","operator":"National Grid Electricity Distribution","voltage_label":"33kV"}},{"type":"Feature","geometry":{"type":"Point","coordinates":[-2.63226,51.48306]},"properties":{"name":"Stoke Bishop Substation","voltage":"33000;11000","substation":"","operator":"National Grid Electricity Distribution Plc","voltage_label":"33kV"}},{"type":"Feature","geometry":{"type":"Point","coordinates":[-2.51012,51.82235]},"properties":{"name":"Bilson","voltage":"33000;11000","substation":"distribution","operator":"National Grid Electricity Distribution","voltage_label":"33kV"}},{"type":"Feature","geometry":{"type":"Point","coordinates":[-3.35616,51.63646]},"properties":{"name":"Lady Windsor Primary Substation","voltage":"33000;11000;11000","substation":"","operator":"National Grid Electricity Distribution Plc","voltage_label":"33kV"}},{"type":"Feature","geometry":{"type":"Point","coordinates":[-2.67517,51.53476]},"properties":{"name":"Avonmouth Windfarm Substation","voltage":"33000","substation":"","operator":"National Grid Electricity Distribution","voltage_label":"33kV"}},{"type":"Feature","geometry":{"type":"Point","coordinates":[-2.53777,51.71423]},"properties":{"name":"Mead Lane Substation","voltage":"33000","substation":"","operator":"National Grid Electricity Distribution","voltage_label":"33kV"}},{"type":"Feature","geometry":{"type":"Point","coordinates":[-3.80619,51.98798]},"properties":{"name":"Llandovery Substation","voltage":"33000;11000","substation":"distribution","operator":"National Grid Electricity Distribution Plc","voltage_label":"33kV"}},{"type":"Feature","geometry":{"type":"Point","coordinates":[-3.99945,51.77906]},"properties":{"name":"Pantyffynon Primary Substation","voltage":"33000;11000","substation":"","operator":"National Grid Electricity Distribution Plc","voltage_label":"33kV"}},{"type":"Feature","geometry":{"type":"Point","coordinates":[-4.70548,51.70079]},"properties":{"name":"Broadfield Primary Substation","voltage":"33000;11000","substation":"minor_distribution","operator":"National Grid Electricity Distribution Plc","voltage_label":"33kV"}},{"type":"Feature","geometry":{"type":"Point","coordinates":[-5.01894,51.72892]},"properties":{"name":"Steynton Primary Substation","voltage":"33000;11000","substation":"distribution","operator":"National Grid Electricity Distribution Plc","voltage_label":"33kV"}},{"type":"Feature","geometry":{"type":"Point","coordinates":[-4.78199,51.68041]},"properties":{"name":"St Florence Primary Substation","voltage":"33000;11000","substation":"distribution","operator":"National Grid Electricity Distribution Plc","voltage_label":"33kV"}},{"type":"Feature","geometry":{"type":"Point","coordinates":[-4.71004,51.67195]},"properties":{"name":"Tenby Primary Substation","voltage":"33000;11000","substation":"distribution","operator":"National Grid Electricity Distribution Plc","voltage_label":"33kV"}},{"type":"Feature","geometry":{"type":"Point","coordinates":[-4.51905,51.74753]},"properties":{"name":"Pendine Primary Substation","voltage":"33000;11000","substation":"distribution","operator":"National Grid Electricity Distribution Plc","voltage_label":"33kV"}},{"type":"Feature","geometry":{"type":"Point","coordinates":[-4.58815,51.94871]},"properties":{"name":"Llanfyrnach Substation","voltage":"33000;11000","substation":"distribution","operator":"National Grid Electricity Distribution Plc","voltage_label":"33kV"}},{"type":"Feature","geometry":{"type":"Point","coordinates":[-4.59668,51.83034]},"properties":{"name":"Whitland Primary Substation","voltage":"33000;11000","substation":"distribution","operator":"National Grid Electricity Distribution Plc","voltage_label":"33kV"}},{"type":"Feature","geometry":{"type":"Point","coordinates":[-4.49952,51.84482]},"properties":{"name":"St Clears Primary Substation","voltage":"33000;11000","substation":"distribution","operator":"National Grid Electricity Distribution Plc","voltage_label":"33kV"}},{"type":"Feature","geometry":{"type":"Point","coordinates":[-4.73082,51.82411]},"properties":{"name":"Penblewin Primary Substation","voltage":"33000;11000","substation":"distribution","operator":"National Grid Electricity Distribution Plc","voltage_label":"33kV"}},{"type":"Feature","geometry":{"type":"Point","coordinates":[-4.1293,51.69971]},"properties":{"name":"Westfa Primary Substation","voltage":"33000;11000","substation":"","operator":"National Grid Electricity Distribution Plc","voltage_label":"33kV"}},{"type":"Feature","geometry":{"type":"Point","coordinates":[-4.43362,51.99614]},"properties":{"name":"Blaen Bowi Substation","voltage":"33000","substation":"","operator":"National Grid Electricity Distribution Plc","voltage_label":"33kV"}},{"type":"Feature","geometry":{"type":"Point","coordinates":[-2.69204,51.47116]},"properties":{"name":"Easton-in-Gordano Substation","voltage":"33000;11000","substation":"","operator":"National Grid Electricity Distribution","voltage_label":"33kV"}},{"type":"Feature","geometry":{"type":"Point","coordinates":[-3.13571,51.72745]},"properties":{"name":"Abertillery Primary Substation","voltage":"33000;11000;400","substation":"minor_distribution","operator":"National Grid Electricity Distribution Plc","voltage_label":"33kV"}},{"type":"Feature","geometry":{"type":"Point","coordinates":[-4.11113,51.19952]},"properties":{"name":"Ilfracombe Substation","voltage":"33000;11000","substation":"distribution","operator":"National Grid Electricity Distribution","voltage_label":"33kV"}},{"type":"Feature","geometry":{"type":"Point","coordinates":[-3.48838,51.68061]},"properties":{"name":"Maerdy Primary Substation","voltage":"33000;11000","substation":"","operator":"National Grid Electricity Distribution Plc","voltage_label":"33kV"}},{"type":"Feature","geometry":{"type":"Point","coordinates":[-3.45627,51.66798]},"properties":{"name":"Middle Fan Primary Substation","voltage":"33000;11000","substation":"","operator":"National Grid Electricity Distribution Plc","voltage_label":"33kV"}},{"type":"Feature","geometry":{"type":"Point","coordinates":[-3.64113,51.74183]},"properties":{"name":"","voltage":"33000","substation":"","operator":"","voltage_label":"33kV"}},{"type":"Feature","geometry":{"type":"Point","coordinates":[-3.64021,51.7391]},"properties":{"name":"Aberpergwm Primary Substation","voltage":"33000;11000","substation":"","operator":"National Grid Electricity Distribution Plc","voltage_label":"33kV"}},{"type":"Feature","geometry":{"type":"Point","coordinates":[-2.56182,51.75438]},"properties":{"name":"Princess Royal Substation","voltage":"33000","substation":"","operator":"","voltage_label":"33kV"}},{"type":"Feature","geometry":{"type":"Point","coordinates":[-2.57802,51.85554]},"properties":{"name":"Wyelands Substation","voltage":"33000","substation":"","operator":"","voltage_label":"33kV"}},{"type":"Feature","geometry":{"type":"Point","coordinates":[-2.59884,51.85448]},"properties":{"name":"Stowfield Substation","voltage":"33000","substation":"","operator":"National Grid Electricity Distribution","voltage_label":"33kV"}},{"type":"Feature","geometry":{"type":"Point","coordinates":[-2.55993,51.4116]},"properties":{"name":"Whitchurch Substation","voltage":"33000;11000","substation":"","operator":"National Grid Electricity Distribution","voltage_label":"33kV"}},{"type":"Feature","geometry":{"type":"Point","coordinates":[-3.18185,51.61747]},"properties":{"name":"Cwmfelinfach Primary Substation","voltage":"33000;11000","substation":"distribution","operator":"National Grid Electricity Distribution Plc","voltage_label":"33kV"}},{"type":"Feature","geometry":{"type":"Point","coordinates":[-4.23555,52.04716]},"properties":{"name":"Llanllwni Substation","voltage":"33000;11000","substation":"","operator":"National Grid Electricity Distribution Plc","voltage_label":"33kV"}},{"type":"Feature","geometry":{"type":"Point","coordinates":[-4.52514,52.11118]},"properties":{"name":"Blaenporth Primary Substation","voltage":"33000;11000","substation":"distribution","operator":"National Grid Electricity Distribution Plc","voltage_label":"33kV"}},{"type":"Feature","geometry":{"type":"Point","coordinates":[-2.51681,51.47055]},"properties":{"name":"Woodland Way Substation","voltage":"33000;11000","substation":"distribution","operator":"National Grid Electricity Distribution","voltage_label":"33kV"}},{"type":"Feature","geometry":{"type":"Point","coordinates":[-4.1501,51.11476]},"properties":{"name":"Braunton","voltage":"33000;11000","substation":"","operator":"","voltage_label":"33kV"}},{"type":"Feature","geometry":{"type":"Point","coordinates":[-3.56356,51.13736]},"properties":{"name":"Luckwell Bridge Substation","voltage":"33000;11000","substation":"","operator":"National Grid Electricity Distribution","voltage_label":"33kV"}},{"type":"Feature","geometry":{"type":"Point","coordinates":[-3.49731,51.20009]},"properties":{"name":"Periton Substation","voltage":"33000;11000","substation":"distribution","operator":"National Grid Electricity Distribution","voltage_label":"33kV"}},{"type":"Feature","geometry":{"type":"Point","coordinates":[-3.46511,51.19944]},"properties":{"name":"Alcombe Substation","voltage":"33000;11000","substation":"distribution","operator":"National Grid Electricity Distribution","voltage_label":"33kV"}},{"type":"Feature","geometry":{"type":"Point","coordinates":[-4.06289,51.07953]},"properties":{"name":"Barnstaple Quay Substation","voltage":"33000;11000","substation":"","operator":"National Grid Electricity Distribution","voltage_label":"33kV"}},{"type":"Feature","geometry":{"type":"Point","coordinates":[-3.84851,51.2213]},"properties":{"name":"Lynton Substation","voltage":"33000;11000","substation":"distribution","operator":"National Grid Electricity Distribution","voltage_label":"33kV"}},{"type":"Feature","geometry":{"type":"Point","coordinates":[-2.56175,51.52176]},"properties":{"name":"Patchway Substation","voltage":"33000;11000","substation":"","operator":"National Grid Electricity Distribution","voltage_label":"33kV"}},{"type":"Feature","geometry":{"type":"Point","coordinates":[-2.69676,51.50481]},"properties":{"name":"Avonmouth Substation","voltage":"33000;11000","substation":"","operator":"National Grid Electricity Distribution","voltage_label":"33kV"}}]}